"region_nuts_code","region_nis_code","region_label_nl","province_nuts_code","province_nis_code","province_label_nl","arrondissement_nuts_code","arrondissement_nis_code","arrondissement_label_nl","municipality_nis_code","municipality_nis_label_nl","municipality_label_nl","postcode"
"BE1","04000","Brussels Hoofdstedelijk Gewest","BE10","04000","Brussels Hoofdstedelijk Gewest","BE100","21000","Brussel Hoofdstad","21004","Brussel","Brussel","1000"
"BE1","04000","Brussels Hoofdstedelijk Gewest","BE10","04000","Brussels Hoofdstedelijk Gewest","BE100","21000","Brussel Hoofdstad","21004","Brussel","Laken (Bru.)","1020"
"BE1","04000","Brussels Hoofdstedelijk Gewest","BE10","04000","Brussels Hoofdstedelijk Gewest","BE100","21000","Brussel Hoofdstad","21015","Schaarbeek","Schaarbeek","1030"
"BE1","04000","Brussels Hoofdstedelijk Gewest","BE10","04000","Brussels Hoofdstedelijk Gewest","BE100","21000","Brussel Hoofdstad","21005","Etterbeek","Etterbeek","1040"
"BE1","04000","Brussels Hoofdstedelijk Gewest","BE10","04000","Brussels Hoofdstedelijk Gewest","BE100","21000","Brussel Hoofdstad","21009","Elsene","Elsene","1050"
"BE1","04000","Brussels Hoofdstedelijk Gewest","BE10","04000","Brussels Hoofdstedelijk Gewest","BE100","21000","Brussel Hoofdstad","21013","Sint-Gillis","Sint-Gillis","1060"
"BE1","04000","Brussels Hoofdstedelijk Gewest","BE10","04000","Brussels Hoofdstedelijk Gewest","BE100","21000","Brussel Hoofdstad","21001","Anderlecht","Anderlecht","1070"
"BE1","04000","Brussels Hoofdstedelijk Gewest","BE10","04000","Brussels Hoofdstedelijk Gewest","BE100","21000","Brussel Hoofdstad","21012","Sint-Jans-Molenbeek","Sint-Jans-Molenbeek","1080"
"BE1","04000","Brussels Hoofdstedelijk Gewest","BE10","04000","Brussels Hoofdstedelijk Gewest","BE100","21000","Brussel Hoofdstad","21011","Koekelberg","Koekelberg","1081"
"BE1","04000","Brussels Hoofdstedelijk Gewest","BE10","04000","Brussels Hoofdstedelijk Gewest","BE100","21000","Brussel Hoofdstad","21003","Sint-Agatha-Berchem","Sint-Agatha-Berchem","1082"
"BE1","04000","Brussels Hoofdstedelijk Gewest","BE10","04000","Brussels Hoofdstedelijk Gewest","BE100","21000","Brussel Hoofdstad","21008","Ganshoren","Ganshoren","1083"
"BE1","04000","Brussels Hoofdstedelijk Gewest","BE10","04000","Brussels Hoofdstedelijk Gewest","BE100","21000","Brussel Hoofdstad","21010","Jette","Jette","1090"
"BE1","04000","Brussels Hoofdstedelijk Gewest","BE10","04000","Brussels Hoofdstedelijk Gewest","BE100","21000","Brussel Hoofdstad","21004","Brussel","Neder-over-Heembeek (Bru.)","1120"
"BE1","04000","Brussels Hoofdstedelijk Gewest","BE10","04000","Brussels Hoofdstedelijk Gewest","BE100","21000","Brussel Hoofdstad","21004","Brussel","Haren (Bru.)","1130"
"BE1","04000","Brussels Hoofdstedelijk Gewest","BE10","04000","Brussels Hoofdstedelijk Gewest","BE100","21000","Brussel Hoofdstad","21006","Evere","Evere","1140"
"BE1","04000","Brussels Hoofdstedelijk Gewest","BE10","04000","Brussels Hoofdstedelijk Gewest","BE100","21000","Brussel Hoofdstad","21019","Sint-Pieters-Woluwe","Sint-Pieters-Woluwe","1150"
"BE1","04000","Brussels Hoofdstedelijk Gewest","BE10","04000","Brussels Hoofdstedelijk Gewest","BE100","21000","Brussel Hoofdstad","21002","Oudergem","Oudergem","1160"
"BE1","04000","Brussels Hoofdstedelijk Gewest","BE10","04000","Brussels Hoofdstedelijk Gewest","BE100","21000","Brussel Hoofdstad","21017","Watermaal-Bosvoorde","Watermaal-Bosvoorde","1170"
"BE1","04000","Brussels Hoofdstedelijk Gewest","BE10","04000","Brussels Hoofdstedelijk Gewest","BE100","21000","Brussel Hoofdstad","21016","Ukkel","Ukkel","1180"
"BE1","04000","Brussels Hoofdstedelijk Gewest","BE10","04000","Brussels Hoofdstedelijk Gewest","BE100","21000","Brussel Hoofdstad","21007","Vorst","Vorst","1190"
"BE1","04000","Brussels Hoofdstedelijk Gewest","BE10","04000","Brussels Hoofdstedelijk Gewest","BE100","21000","Brussel Hoofdstad","21018","Sint-Lambrechts-Woluwe","Sint-Lambrechts-Woluwe","1200"
"BE1","04000","Brussels Hoofdstedelijk Gewest","BE10","04000","Brussels Hoofdstedelijk Gewest","BE100","21000","Brussel Hoofdstad","21014","Sint-Joost-ten-Node","Sint-Joost-ten-Node","1210"
"BE3","03000","Waals Gewest","BE31","20002","Waals-Brabant","BE310","25000","Nijvel","25112","Wavre","Wavre","1300"
"BE3","03000","Waals Gewest","BE31","20002","Waals-Brabant","BE310","25000","Nijvel","25112","Wavre","Bierges","1301"
"BE3","03000","Waals Gewest","BE31","20002","Waals-Brabant","BE310","25000","Nijvel","25050","La Hulpe","La Hulpe","1310"
"BE3","03000","Waals Gewest","BE31","20002","Waals-Brabant","BE310","25000","Nijvel","25043","Incourt","Incourt","1315"
"BE3","03000","Waals Gewest","BE31","20002","Waals-Brabant","BE310","25000","Nijvel","25005","Beauvechain","Beauvechain","1320"
"BE3","03000","Waals Gewest","BE31","20002","Waals-Brabant","BE310","25000","Nijvel","25018","Chaumont-Gistoux","Chaumont-Gistoux","1325"
"BE3","03000","Waals Gewest","BE31","20002","Waals-Brabant","BE310","25000","Nijvel","25091","Rixensart","Rixensart","1330"
"BE3","03000","Waals Gewest","BE31","20002","Waals-Brabant","BE310","25000","Nijvel","25091","Rixensart","Rosières","1331"
"BE3","03000","Waals Gewest","BE31","20002","Waals-Brabant","BE310","25000","Nijvel","25091","Rixensart","Genval","1332"
"BE3","03000","Waals Gewest","BE31","20002","Waals-Brabant","BE310","25000","Nijvel","25121","Ottignies-Louvain-la-Neuve","Ottignies-Louvain-la-Neuve","1340"
"BE3","03000","Waals Gewest","BE31","20002","Waals-Brabant","BE310","25000","Nijvel","25121","Ottignies-Louvain-la-Neuve","Céroux-Mousty","1341"
"BE3","03000","Waals Gewest","BE31","20002","Waals-Brabant","BE310","25000","Nijvel","25121","Ottignies-Louvain-la-Neuve","Limelette","1342"
"BE3","03000","Waals Gewest","BE31","20002","Waals-Brabant","BE310","25000","Nijvel","25121","Ottignies-Louvain-la-Neuve","Louvain-la-Neuve","1348"
"BE3","03000","Waals Gewest","BE31","20002","Waals-Brabant","BE310","25000","Nijvel","25120","Orp-Jauche","Orp-Jauche","1350"
"BE3","03000","Waals Gewest","BE31","20002","Waals-Brabant","BE310","25000","Nijvel","25118","Hélécine","Hélécine","1357"
"BE3","03000","Waals Gewest","BE31","20002","Waals-Brabant","BE310","25000","Nijvel","25084","Perwez","Perwez","1360"
"BE3","03000","Waals Gewest","BE31","20002","Waals-Brabant","BE310","25000","Nijvel","25122","Ramillies","Ramillies","1367"
"BE3","03000","Waals Gewest","BE31","20002","Waals-Brabant","BE310","25000","Nijvel","25048","Jodoigne","Jodoigne","1370"
"BE3","03000","Waals Gewest","BE31","20002","Waals-Brabant","BE310","25000","Nijvel","25119","Lasne","Lasne","1380"
"BE3","03000","Waals Gewest","BE31","20002","Waals-Brabant","BE310","25000","Nijvel","25037","Grez-Doiceau","Grez-Doiceau","1390"
"BE3","03000","Waals Gewest","BE31","20002","Waals-Brabant","BE310","25000","Nijvel","25072","Nivelles","Nivelles","1400"
"BE3","03000","Waals Gewest","BE31","20002","Waals-Brabant","BE310","25000","Nijvel","25072","Nivelles","Baulers","1401"
"BE3","03000","Waals Gewest","BE31","20002","Waals-Brabant","BE310","25000","Nijvel","25072","Nivelles","Thines","1402"
"BE3","03000","Waals Gewest","BE31","20002","Waals-Brabant","BE310","25000","Nijvel","25072","Nivelles","Bornival","1404"
"BE3","03000","Waals Gewest","BE31","20002","Waals-Brabant","BE310","25000","Nijvel","25110","Waterloo","Waterloo","1410"
"BE3","03000","Waals Gewest","BE31","20002","Waals-Brabant","BE310","25000","Nijvel","25014","Braine-l'Alleud","Braine-l'Alleud","1420"
"BE3","03000","Waals Gewest","BE31","20002","Waals-Brabant","BE310","25000","Nijvel","25014","Braine-l'Alleud","Ophain-Bois-Seigneur-Isaac","1421"
"BE3","03000","Waals Gewest","BE31","20002","Waals-Brabant","BE310","25000","Nijvel","25014","Braine-l'Alleud","Lillois-Witterzée","1428"
"BE3","03000","Waals Gewest","BE31","20002","Waals-Brabant","BE310","25000","Nijvel","25123","Rebecq","Rebecq","1430"
"BE3","03000","Waals Gewest","BE31","20002","Waals-Brabant","BE310","25000","Nijvel","25068","Mont-Saint-Guibert","Mont-Saint-Guibert","1435"
"BE3","03000","Waals Gewest","BE31","20002","Waals-Brabant","BE310","25000","Nijvel","25015","Braine-le-Château","Braine-le-Château","1440"
"BE3","03000","Waals Gewest","BE31","20002","Waals-Brabant","BE310","25000","Nijvel","25117","Chastre","Chastre","1450"
"BE3","03000","Waals Gewest","BE31","20002","Waals-Brabant","BE310","25000","Nijvel","25124","Walhain","Walhain","1457"
"BE3","03000","Waals Gewest","BE31","20002","Waals-Brabant","BE310","25000","Nijvel","25044","Ittre","Ittre","1460"
"BE3","03000","Waals Gewest","BE31","20002","Waals-Brabant","BE310","25000","Nijvel","25044","Ittre","Haut-Ittre","1461"
"BE3","03000","Waals Gewest","BE31","20002","Waals-Brabant","BE310","25000","Nijvel","25031","Genappe","Genappe","1470"
"BE3","03000","Waals Gewest","BE31","20002","Waals-Brabant","BE310","25000","Nijvel","25031","Genappe","Loupoigne","1471"
"BE3","03000","Waals Gewest","BE31","20002","Waals-Brabant","BE310","25000","Nijvel","25031","Genappe","Vieux-Genappe","1472"
"BE3","03000","Waals Gewest","BE31","20002","Waals-Brabant","BE310","25000","Nijvel","25031","Genappe","Glabais","1473"
"BE3","03000","Waals Gewest","BE31","20002","Waals-Brabant","BE310","25000","Nijvel","25031","Genappe","Ways","1474"
"BE3","03000","Waals Gewest","BE31","20002","Waals-Brabant","BE310","25000","Nijvel","25031","Genappe","Houtain-le-Val","1476"
"BE3","03000","Waals Gewest","BE31","20002","Waals-Brabant","BE310","25000","Nijvel","25105","Tubize","Tubize","1480"
"BE3","03000","Waals Gewest","BE31","20002","Waals-Brabant","BE310","25000","Nijvel","25023","Court-Saint-Etienne","Court-Saint-Etienne","1490"
"BE3","03000","Waals Gewest","BE31","20002","Waals-Brabant","BE310","25000","Nijvel","25107","Villers-la-Ville","Villers-la-Ville","1495"
"BE2","02000","Vlaams Gewest","BE24","20001","Vlaams-Brabant",,"23000","Halle-Vilvoorde","23027","Halle","Halle","1500"
"BE2","02000","Vlaams Gewest","BE24","20001","Vlaams-Brabant",,"23000","Halle-Vilvoorde","23027","Halle","Buizingen","1501"
"BE2","02000","Vlaams Gewest","BE24","20001","Vlaams-Brabant",,"23000","Halle-Vilvoorde","23027","Halle","Lembeek","1502"
"BE2","02000","Vlaams Gewest","BE24","20001","Vlaams-Brabant",,"23000","Halle-Vilvoorde","23032","Herne","Herne","1540"
"BE2","02000","Vlaams Gewest","BE24","20001","Vlaams-Brabant",,"23000","Halle-Vilvoorde","23032","Herne","Sint-Pieters-Kapelle","1541"
"BE2","02000","Vlaams Gewest","BE24","20001","Vlaams-Brabant",,"23000","Halle-Vilvoorde","23009","Bever","Bever","1547"
"BE2","02000","Vlaams Gewest","BE24","20001","Vlaams-Brabant",,"23000","Halle-Vilvoorde","23033","Hoeilaart","Hoeilaart","1560"
"BE2","02000","Vlaams Gewest","BE24","20001","Vlaams-Brabant",,"23000","Halle-Vilvoorde","23023","Galmaarden","Galmaarden","1570"
"BE2","02000","Vlaams Gewest","BE24","20001","Vlaams-Brabant",,"23000","Halle-Vilvoorde","23077","Sint-Pieters-Leeuw","Sint-Pieters-Leeuw","1600"
"BE2","02000","Vlaams Gewest","BE24","20001","Vlaams-Brabant",,"23000","Halle-Vilvoorde","23077","Sint-Pieters-Leeuw","Ruisbroek (Vl.Br.)","1601"
"BE2","02000","Vlaams Gewest","BE24","20001","Vlaams-Brabant",,"23000","Halle-Vilvoorde","23077","Sint-Pieters-Leeuw","Vlezenbeek","1602"
"BE2","02000","Vlaams Gewest","BE24","20001","Vlaams-Brabant",,"23000","Halle-Vilvoorde","23098","Drogenbos","Drogenbos","1620"
"BE2","02000","Vlaams Gewest","BE24","20001","Vlaams-Brabant",,"23000","Halle-Vilvoorde","23100","Linkebeek","Linkebeek","1630"
"BE2","02000","Vlaams Gewest","BE24","20001","Vlaams-Brabant",,"23000","Halle-Vilvoorde","23101","Sint-Genesius-Rode","Sint-Genesius-Rode","1640"
"BE2","02000","Vlaams Gewest","BE24","20001","Vlaams-Brabant",,"23000","Halle-Vilvoorde","23003","Beersel","Beersel","1650"
"BE2","02000","Vlaams Gewest","BE24","20001","Vlaams-Brabant",,"23000","Halle-Vilvoorde","23003","Beersel","Lot","1651"
"BE2","02000","Vlaams Gewest","BE24","20001","Vlaams-Brabant",,"23000","Halle-Vilvoorde","23003","Beersel","Alsemberg","1652"
"BE2","02000","Vlaams Gewest","BE24","20001","Vlaams-Brabant",,"23000","Halle-Vilvoorde","23003","Beersel","Dworp","1653"
"BE2","02000","Vlaams Gewest","BE24","20001","Vlaams-Brabant",,"23000","Halle-Vilvoorde","23003","Beersel","Huizingen","1654"
"BE2","02000","Vlaams Gewest","BE24","20001","Vlaams-Brabant",,"23000","Halle-Vilvoorde","23064","Pepingen","Pepingen","1670"
"BE2","02000","Vlaams Gewest","BE24","20001","Vlaams-Brabant",,"23000","Halle-Vilvoorde","23064","Pepingen","Elingen","1671"
"BE2","02000","Vlaams Gewest","BE24","20001","Vlaams-Brabant",,"23000","Halle-Vilvoorde","23064","Pepingen","Beert","1673"
"BE2","02000","Vlaams Gewest","BE24","20001","Vlaams-Brabant",,"23000","Halle-Vilvoorde","23064","Pepingen","Bellingen","1674"
"BE2","02000","Vlaams Gewest","BE24","20001","Vlaams-Brabant",,"23000","Halle-Vilvoorde","23016","Dilbeek","Dilbeek","1700"
"BE2","02000","Vlaams Gewest","BE24","20001","Vlaams-Brabant",,"23000","Halle-Vilvoorde","23016","Dilbeek","Itterbeek","1701"
"BE2","02000","Vlaams Gewest","BE24","20001","Vlaams-Brabant",,"23000","Halle-Vilvoorde","23016","Dilbeek","Groot-Bijgaarden","1702"
"BE2","02000","Vlaams Gewest","BE24","20001","Vlaams-Brabant",,"23000","Halle-Vilvoorde","23016","Dilbeek","Schepdaal","1703"
"BE2","02000","Vlaams Gewest","BE24","20001","Vlaams-Brabant",,"23000","Halle-Vilvoorde","23002","Asse","Asse","1730"
"BE2","02000","Vlaams Gewest","BE24","20001","Vlaams-Brabant",,"23000","Halle-Vilvoorde","23002","Asse","Zellik","1731"
"BE2","02000","Vlaams Gewest","BE24","20001","Vlaams-Brabant",,"23000","Halle-Vilvoorde","23086","Ternat","Ternat","1740"
"BE2","02000","Vlaams Gewest","BE24","20001","Vlaams-Brabant",,"23000","Halle-Vilvoorde","23086","Ternat","Wambeek","1741"
"BE2","02000","Vlaams Gewest","BE24","20001","Vlaams-Brabant",,"23000","Halle-Vilvoorde","23086","Ternat","Sint-Katherina-Lombeek","1742"
"BE2","02000","Vlaams Gewest","BE24","20001","Vlaams-Brabant",,"23000","Halle-Vilvoorde","23060","Opwijk","Opwijk","1745"
"BE2","02000","Vlaams Gewest","BE24","20001","Vlaams-Brabant",,"23000","Halle-Vilvoorde","23104","Lennik","Lennik","1750"
"BE2","02000","Vlaams Gewest","BE24","20001","Vlaams-Brabant",,"23000","Halle-Vilvoorde","23024","Gooik","Gooik","1755"
"BE2","02000","Vlaams Gewest","BE24","20001","Vlaams-Brabant",,"23000","Halle-Vilvoorde","23097","Roosdaal","Roosdaal","1760"
"BE2","02000","Vlaams Gewest","BE24","20001","Vlaams-Brabant",,"23000","Halle-Vilvoorde","23097","Roosdaal","Borchtlombeek","1761"
"BE2","02000","Vlaams Gewest","BE24","20001","Vlaams-Brabant",,"23000","Halle-Vilvoorde","23044","Liedekerke","Liedekerke","1770"
"BE2","02000","Vlaams Gewest","BE24","20001","Vlaams-Brabant",,"23000","Halle-Vilvoorde","23102","Wemmel","Wemmel","1780"
"BE2","02000","Vlaams Gewest","BE24","20001","Vlaams-Brabant",,"23000","Halle-Vilvoorde","23052","Merchtem","Merchtem","1785"
"BE2","02000","Vlaams Gewest","BE24","20001","Vlaams-Brabant",,"23000","Halle-Vilvoorde","23105","Affligem","Affligem","1790"
"BE2","02000","Vlaams Gewest","BE24","20001","Vlaams-Brabant",,"23000","Halle-Vilvoorde","23088","Vilvoorde","Vilvoorde","1800"
"BE2","02000","Vlaams Gewest","BE24","20001","Vlaams-Brabant",,"23000","Halle-Vilvoorde","23081","Steenokkerzeel","Steenokkerzeel","1820"
"BE2","02000","Vlaams Gewest","BE24","20001","Vlaams-Brabant",,"23000","Halle-Vilvoorde","23047","Machelen","Machelen (Vl.Br.)","1830"
"BE2","02000","Vlaams Gewest","BE24","20001","Vlaams-Brabant",,"23000","Halle-Vilvoorde","23047","Machelen","Diegem","1831"
"BE2","02000","Vlaams Gewest","BE24","20001","Vlaams-Brabant",,"23000","Halle-Vilvoorde","23045","Londerzeel","Londerzeel","1840"
"BE2","02000","Vlaams Gewest","BE24","20001","Vlaams-Brabant",,"23000","Halle-Vilvoorde","23025","Grimbergen","Grimbergen","1850"
"BE2","02000","Vlaams Gewest","BE24","20001","Vlaams-Brabant",,"23000","Halle-Vilvoorde","23025","Grimbergen","Humbeek","1851"
"BE2","02000","Vlaams Gewest","BE24","20001","Vlaams-Brabant",,"23000","Halle-Vilvoorde","23025","Grimbergen","Beigem","1852"
"BE2","02000","Vlaams Gewest","BE24","20001","Vlaams-Brabant",,"23000","Halle-Vilvoorde","23025","Grimbergen","Strombeek-Bever","1853"
"BE2","02000","Vlaams Gewest","BE24","20001","Vlaams-Brabant",,"23000","Halle-Vilvoorde","23050","Meise","Meise","1860"
"BE2","02000","Vlaams Gewest","BE24","20001","Vlaams-Brabant",,"23000","Halle-Vilvoorde","23050","Meise","Wolvertem","1861"
"BE2","02000","Vlaams Gewest","BE24","20001","Vlaams-Brabant",,"23000","Halle-Vilvoorde","23039","Kapelle-op-den-Bos","Kapelle-op-den-Bos","1880"
"BE2","02000","Vlaams Gewest","BE24","20001","Vlaams-Brabant",,"23000","Halle-Vilvoorde","23038","Kampenhout","Kampenhout","1910"
"BE2","02000","Vlaams Gewest","BE24","20001","Vlaams-Brabant",,"23000","Halle-Vilvoorde","23094","Zaventem","Zaventem","1930"
"BE2","02000","Vlaams Gewest","BE24","20001","Vlaams-Brabant",,"23000","Halle-Vilvoorde","23094","Zaventem","Sint-Stevens-Woluwe","1932"
"BE2","02000","Vlaams Gewest","BE24","20001","Vlaams-Brabant",,"23000","Halle-Vilvoorde","23094","Zaventem","Sterrebeek","1933"
"BE2","02000","Vlaams Gewest","BE24","20001","Vlaams-Brabant",,"23000","Halle-Vilvoorde","23099","Kraainem","Kraainem","1950"
"BE2","02000","Vlaams Gewest","BE24","20001","Vlaams-Brabant",,"23000","Halle-Vilvoorde","23103","Wezembeek-Oppem","Wezembeek-Oppem","1970"
"BE2","02000","Vlaams Gewest","BE24","20001","Vlaams-Brabant",,"23000","Halle-Vilvoorde","23096","Zemst","Zemst","1980"
"BE2","02000","Vlaams Gewest","BE24","20001","Vlaams-Brabant",,"23000","Halle-Vilvoorde","23096","Zemst","Hofstade (Vl.Br.)","1981"
"BE2","02000","Vlaams Gewest","BE24","20001","Vlaams-Brabant",,"23000","Halle-Vilvoorde","23096","Zemst","Elewijt","1982"
"BE2","02000","Vlaams Gewest","BE21","10000","Antwerpen",,"11000","Antwerpen","11002","Antwerpen","Antwerpen","2000"
"BE2","02000","Vlaams Gewest","BE21","10000","Antwerpen",,"11000","Antwerpen","11002","Antwerpen","Antwerpen","2018"
"BE2","02000","Vlaams Gewest","BE21","10000","Antwerpen",,"11000","Antwerpen","11002","Antwerpen","Antwerpen","2020"
"BE2","02000","Vlaams Gewest","BE21","10000","Antwerpen",,"11000","Antwerpen","11002","Antwerpen","Antwerpen","2030"
"BE2","02000","Vlaams Gewest","BE21","10000","Antwerpen",,"11000","Antwerpen","11002","Antwerpen","Antwerpen","2040"
"BE2","02000","Vlaams Gewest","BE21","10000","Antwerpen",,"11000","Antwerpen","11002","Antwerpen","Antwerpen","2050"
"BE2","02000","Vlaams Gewest","BE21","10000","Antwerpen",,"11000","Antwerpen","11002","Antwerpen","Antwerpen","2060"
"BE2","02000","Vlaams Gewest","BE21","10000","Antwerpen",,"11000","Antwerpen","11056","Zwijndrecht","Zwijndrecht","2070"
"BE2","02000","Vlaams Gewest","BE21","10000","Antwerpen",,"11000","Antwerpen","11002","Antwerpen","Deurne","2100"
"BE2","02000","Vlaams Gewest","BE21","10000","Antwerpen",,"11000","Antwerpen","11050","Wijnegem","Wijnegem","2110"
"BE2","02000","Vlaams Gewest","BE21","10000","Antwerpen",,"11000","Antwerpen","11002","Antwerpen","Borgerhout","2140"
"BE2","02000","Vlaams Gewest","BE21","10000","Antwerpen",,"11000","Antwerpen","11007","Borsbeek","Borsbeek (Antw.)","2150"
"BE2","02000","Vlaams Gewest","BE21","10000","Antwerpen",,"11000","Antwerpen","11052","Wommelgem","Wommelgem","2160"
"BE2","02000","Vlaams Gewest","BE21","10000","Antwerpen",,"11000","Antwerpen","11002","Antwerpen","Merksem","2170"
"BE2","02000","Vlaams Gewest","BE21","10000","Antwerpen",,"11000","Antwerpen","11002","Antwerpen","Ekeren","2180"
"BE2","02000","Vlaams Gewest","BE21","10000","Antwerpen",,"13000","Turnhout","13011","Herentals","Herentals","2200"
"BE2","02000","Vlaams Gewest","BE21","10000","Antwerpen",,"12000","Mechelen","12014","Heist-op-den-Berg","Heist-op-den-Berg","2220"
"BE2","02000","Vlaams Gewest","BE21","10000","Antwerpen",,"12000","Mechelen","12014","Heist-op-den-Berg","Booischot","2221"
"BE2","02000","Vlaams Gewest","BE21","10000","Antwerpen",,"12000","Mechelen","12014","Heist-op-den-Berg","Itegem","2222"
"BE2","02000","Vlaams Gewest","BE21","10000","Antwerpen",,"12000","Mechelen","12014","Heist-op-den-Berg","Schriek","2223"
"BE2","02000","Vlaams Gewest","BE21","10000","Antwerpen",,"13000","Turnhout","13013","Herselt","Herselt","2230"
"BE2","02000","Vlaams Gewest","BE21","10000","Antwerpen",,"13000","Turnhout","13016","Hulshout","Hulshout","2235"
"BE2","02000","Vlaams Gewest","BE21","10000","Antwerpen",,"11000","Antwerpen","11054","Zandhoven","Zandhoven","2240"
"BE2","02000","Vlaams Gewest","BE21","10000","Antwerpen",,"11000","Antwerpen","11054","Zandhoven","Pulderbos","2242"
"BE2","02000","Vlaams Gewest","BE21","10000","Antwerpen",,"11000","Antwerpen","11054","Zandhoven","Pulle","2243"
"BE2","02000","Vlaams Gewest","BE21","10000","Antwerpen",,"13000","Turnhout","13029","Olen","Olen","2250"
"BE2","02000","Vlaams Gewest","BE21","10000","Antwerpen",,"13000","Turnhout","13049","Westerlo","Westerlo","2260"
"BE2","02000","Vlaams Gewest","BE21","10000","Antwerpen",,"13000","Turnhout","13012","Herenthout","Herenthout","2270"
"BE2","02000","Vlaams Gewest","BE21","10000","Antwerpen",,"13000","Turnhout","13019","Lille","Lille","2275"
"BE2","02000","Vlaams Gewest","BE21","10000","Antwerpen",,"13000","Turnhout","13010","Grobbendonk","Grobbendonk","2280"
"BE2","02000","Vlaams Gewest","BE21","10000","Antwerpen",,"13000","Turnhout","13010","Grobbendonk","Bouwel","2288"
"BE2","02000","Vlaams Gewest","BE21","10000","Antwerpen",,"13000","Turnhout","13044","Vorselaar","Vorselaar","2290"
"BE2","02000","Vlaams Gewest","BE21","10000","Antwerpen",,"13000","Turnhout","13040","Turnhout","Turnhout","2300"
"BE2","02000","Vlaams Gewest","BE21","10000","Antwerpen",,"13000","Turnhout","13037","Rijkevorsel","Rijkevorsel","2310"
"BE2","02000","Vlaams Gewest","BE21","10000","Antwerpen",,"13000","Turnhout","13014","Hoogstraten","Hoogstraten","2320"
"BE2","02000","Vlaams Gewest","BE21","10000","Antwerpen",,"13000","Turnhout","13014","Hoogstraten","Meer","2321"
"BE2","02000","Vlaams Gewest","BE21","10000","Antwerpen",,"13000","Turnhout","13014","Hoogstraten","Minderhout","2322"
"BE2","02000","Vlaams Gewest","BE21","10000","Antwerpen",,"13000","Turnhout","13014","Hoogstraten","Wortel","2323"
"BE2","02000","Vlaams Gewest","BE21","10000","Antwerpen",,"13000","Turnhout","13014","Hoogstraten","Meerle","2328"
"BE2","02000","Vlaams Gewest","BE21","10000","Antwerpen",,"13000","Turnhout","13023","Merksplas","Merksplas","2330"
"BE2","02000","Vlaams Gewest","BE21","10000","Antwerpen",,"13000","Turnhout","13004","Beerse","Beerse","2340"
"BE2","02000","Vlaams Gewest","BE21","10000","Antwerpen",,"13000","Turnhout","13046","Vosselaar","Vosselaar","2350"
"BE2","02000","Vlaams Gewest","BE21","10000","Antwerpen",,"13000","Turnhout","13031","Oud-Turnhout","Oud-Turnhout","2360"
"BE2","02000","Vlaams Gewest","BE21","10000","Antwerpen",,"13000","Turnhout","13001","Arendonk","Arendonk","2370"
"BE2","02000","Vlaams Gewest","BE21","10000","Antwerpen",,"13000","Turnhout","13035","Ravels","Ravels","2380"
"BE2","02000","Vlaams Gewest","BE21","10000","Antwerpen",,"13000","Turnhout","13035","Ravels","Weelde","2381"
"BE2","02000","Vlaams Gewest","BE21","10000","Antwerpen",,"13000","Turnhout","13035","Ravels","Poppel","2382"
"BE2","02000","Vlaams Gewest","BE21","10000","Antwerpen",,"13000","Turnhout","13002","Baarle-Hertog","Baarle-Hertog","2387"
"BE2","02000","Vlaams Gewest","BE21","10000","Antwerpen",,"11000","Antwerpen","11057","Malle","Malle","2390"
"BE2","02000","Vlaams Gewest","BE21","10000","Antwerpen",,"13000","Turnhout","13025","Mol","Mol","2400"
"BE2","02000","Vlaams Gewest","BE21","10000","Antwerpen",,"13000","Turnhout","13053","Laakdal","Eindhout","2430"
"BE2","02000","Vlaams Gewest","BE21","10000","Antwerpen",,"13000","Turnhout","13053","Laakdal","Veerle","2431"
"BE2","02000","Vlaams Gewest","BE21","10000","Antwerpen",,"13000","Turnhout","13008","Geel","Geel","2440"
"BE2","02000","Vlaams Gewest","BE21","10000","Antwerpen",,"13000","Turnhout","13021","Meerhout","Meerhout","2450"
"BE2","02000","Vlaams Gewest","BE21","10000","Antwerpen",,"13000","Turnhout","13017","Kasterlee","Kasterlee","2460"
"BE2","02000","Vlaams Gewest","BE21","10000","Antwerpen",,"13000","Turnhout","13036","Retie","Retie","2470"
"BE2","02000","Vlaams Gewest","BE21","10000","Antwerpen",,"13000","Turnhout","13006","Dessel","Dessel","2480"
"BE2","02000","Vlaams Gewest","BE21","10000","Antwerpen",,"13000","Turnhout","13003","Balen","Balen","2490"
"BE2","02000","Vlaams Gewest","BE21","10000","Antwerpen",,"13000","Turnhout","13003","Balen","Olmen","2491"
"BE2","02000","Vlaams Gewest","BE21","10000","Antwerpen",,"12000","Mechelen","12021","Lier","Lier","2500"
"BE2","02000","Vlaams Gewest","BE21","10000","Antwerpen",,"11000","Antwerpen","11035","Ranst","Ranst","2520"
"BE2","02000","Vlaams Gewest","BE21","10000","Antwerpen",,"11000","Antwerpen","11004","Boechout","Boechout","2530"
"BE2","02000","Vlaams Gewest","BE21","10000","Antwerpen",,"11000","Antwerpen","11004","Boechout","Vremde","2531"
"BE2","02000","Vlaams Gewest","BE21","10000","Antwerpen",,"11000","Antwerpen","11021","Hove","Hove","2540"
"BE2","02000","Vlaams Gewest","BE21","10000","Antwerpen",,"11000","Antwerpen","11025","Lint","Lint","2547"
"BE2","02000","Vlaams Gewest","BE21","10000","Antwerpen",,"11000","Antwerpen","11024","Kontich","Kontich","2550"
"BE2","02000","Vlaams Gewest","BE21","10000","Antwerpen",,"12000","Mechelen","12026","Nijlen","Nijlen","2560"
"BE2","02000","Vlaams Gewest","BE21","10000","Antwerpen",,"12000","Mechelen","12009","Duffel","Duffel","2570"
"BE2","02000","Vlaams Gewest","BE21","10000","Antwerpen",,"12000","Mechelen","12029","Putte","Putte","2580"
"BE2","02000","Vlaams Gewest","BE21","10000","Antwerpen",,"12000","Mechelen","12002","Berlaar","Berlaar","2590"
"BE2","02000","Vlaams Gewest","BE21","10000","Antwerpen",,"11000","Antwerpen","11002","Antwerpen","Berchem","2600"
"BE2","02000","Vlaams Gewest","BE21","10000","Antwerpen",,"11000","Antwerpen","11002","Antwerpen","Wilrijk","2610"
"BE2","02000","Vlaams Gewest","BE21","10000","Antwerpen",,"11000","Antwerpen","11018","Hemiksem","Hemiksem","2620"
"BE2","02000","Vlaams Gewest","BE21","10000","Antwerpen",,"11000","Antwerpen","11038","Schelle","Schelle","2627"
"BE2","02000","Vlaams Gewest","BE21","10000","Antwerpen",,"11000","Antwerpen","11001","Aartselaar","Aartselaar","2630"
"BE2","02000","Vlaams Gewest","BE21","10000","Antwerpen",,"11000","Antwerpen","11029","Mortsel","Mortsel","2640"
"BE2","02000","Vlaams Gewest","BE21","10000","Antwerpen",,"11000","Antwerpen","11013","Edegem","Edegem","2650"
"BE2","02000","Vlaams Gewest","BE21","10000","Antwerpen",,"11000","Antwerpen","11002","Antwerpen","Hoboken","2660"
"BE2","02000","Vlaams Gewest","BE21","10000","Antwerpen",,"12000","Mechelen","12025","Mechelen","Mechelen","2800"
"BE2","02000","Vlaams Gewest","BE21","10000","Antwerpen",,"12000","Mechelen","12025","Mechelen","Heffen","2801"
"BE2","02000","Vlaams Gewest","BE21","10000","Antwerpen",,"12000","Mechelen","12025","Mechelen","Hombeek","2811"
"BE2","02000","Vlaams Gewest","BE21","10000","Antwerpen",,"12000","Mechelen","12025","Mechelen","Muizen (Mechelen)","2812"
"BE2","02000","Vlaams Gewest","BE21","10000","Antwerpen",,"12000","Mechelen","12005","Bonheiden","Bonheiden","2820"
"BE2","02000","Vlaams Gewest","BE21","10000","Antwerpen",,"12000","Mechelen","12040","Willebroek","Willebroek","2830"
"BE2","02000","Vlaams Gewest","BE21","10000","Antwerpen",,"11000","Antwerpen","11037","Rumst","Rumst","2840"
"BE2","02000","Vlaams Gewest","BE21","10000","Antwerpen",,"11000","Antwerpen","11030","Niel","Niel","2845"
"BE2","02000","Vlaams Gewest","BE21","10000","Antwerpen",,"11000","Antwerpen","11005","Boom","Boom","2850"
"BE2","02000","Vlaams Gewest","BE21","10000","Antwerpen",,"12000","Mechelen","12035","Sint-Katelijne-Waver","Sint-Katelijne-Waver","2860"
"BE2","02000","Vlaams Gewest","BE21","10000","Antwerpen",,"12000","Mechelen","12035","Sint-Katelijne-Waver","Onze-Lieve-Vrouw-Waver","2861"
"BE2","02000","Vlaams Gewest","BE21","10000","Antwerpen",,"12000","Mechelen","12030","Puurs","Puurs","2870"
"BE2","02000","Vlaams Gewest","BE21","10000","Antwerpen",,"12000","Mechelen","12007","Bornem","Bornem","2880"
"BE2","02000","Vlaams Gewest","BE21","10000","Antwerpen",,"12000","Mechelen","12034","Sint-Amands","Sint-Amands","2890"
"BE2","02000","Vlaams Gewest","BE21","10000","Antwerpen",,"11000","Antwerpen","11040","Schoten","Schoten","2900"
"BE2","02000","Vlaams Gewest","BE21","10000","Antwerpen",,"11000","Antwerpen","11016","Essen","Essen","2910"
"BE2","02000","Vlaams Gewest","BE21","10000","Antwerpen",,"11000","Antwerpen","11022","Kalmthout","Kalmthout","2920"
"BE2","02000","Vlaams Gewest","BE21","10000","Antwerpen",,"11000","Antwerpen","11008","Brasschaat","Brasschaat","2930"
"BE2","02000","Vlaams Gewest","BE21","10000","Antwerpen",,"11000","Antwerpen","11044","Stabroek","Stabroek","2940"
"BE2","02000","Vlaams Gewest","BE21","10000","Antwerpen",,"11000","Antwerpen","11023","Kapellen","Kapellen (Antw.)","2950"
"BE2","02000","Vlaams Gewest","BE21","10000","Antwerpen",,"11000","Antwerpen","11009","Brecht","Brecht","2960"
"BE2","02000","Vlaams Gewest","BE21","10000","Antwerpen",,"11000","Antwerpen","11039","Schilde","Schilde","2970"
"BE2","02000","Vlaams Gewest","BE21","10000","Antwerpen",,"11000","Antwerpen","11055","Zoersel","Zoersel","2980"
"BE2","02000","Vlaams Gewest","BE21","10000","Antwerpen",,"11000","Antwerpen","11053","Wuustwezel","Wuustwezel","2990"
"BE2","02000","Vlaams Gewest","BE24","20001","Vlaams-Brabant",,"24000","Leuven","24062","Leuven","Leuven","3000"
"BE2","02000","Vlaams Gewest","BE24","20001","Vlaams-Brabant",,"24000","Leuven","24062","Leuven","Heverlee","3001"
"BE2","02000","Vlaams Gewest","BE24","20001","Vlaams-Brabant",,"24000","Leuven","24062","Leuven","Kessel-Lo","3010"
"BE2","02000","Vlaams Gewest","BE24","20001","Vlaams-Brabant",,"24000","Leuven","24062","Leuven","Wilsele","3012"
"BE2","02000","Vlaams Gewest","BE24","20001","Vlaams-Brabant",,"24000","Leuven","24062","Leuven","Wijgmaal (Vl.Br.)","3018"
"BE2","02000","Vlaams Gewest","BE24","20001","Vlaams-Brabant",,"24000","Leuven","24038","Herent","Herent","3020"
"BE2","02000","Vlaams Gewest","BE24","20001","Vlaams-Brabant",,"24000","Leuven","24045","Huldenberg","Huldenberg","3040"
"BE2","02000","Vlaams Gewest","BE24","20001","Vlaams-Brabant",,"24000","Leuven","24086","Oud-Heverlee","Oud-Heverlee","3050"
"BE2","02000","Vlaams Gewest","BE24","20001","Vlaams-Brabant",,"24000","Leuven","24086","Oud-Heverlee","Sint-Joris-Weert","3051"
"BE2","02000","Vlaams Gewest","BE24","20001","Vlaams-Brabant",,"24000","Leuven","24086","Oud-Heverlee","Blanden","3052"
"BE2","02000","Vlaams Gewest","BE24","20001","Vlaams-Brabant",,"24000","Leuven","24086","Oud-Heverlee","Haasrode","3053"
"BE2","02000","Vlaams Gewest","BE24","20001","Vlaams-Brabant",,"24000","Leuven","24086","Oud-Heverlee","Vaalbeek","3054"
"BE2","02000","Vlaams Gewest","BE24","20001","Vlaams-Brabant",,"24000","Leuven","24009","Bertem","Bertem","3060"
"BE2","02000","Vlaams Gewest","BE24","20001","Vlaams-Brabant",,"24000","Leuven","24009","Bertem","Leefdaal","3061"
"BE2","02000","Vlaams Gewest","BE24","20001","Vlaams-Brabant",,"24000","Leuven","24055","Kortenberg","Kortenberg","3070"
"BE2","02000","Vlaams Gewest","BE24","20001","Vlaams-Brabant",,"24000","Leuven","24055","Kortenberg","Erps-Kwerps","3071"
"BE2","02000","Vlaams Gewest","BE24","20001","Vlaams-Brabant",,"24000","Leuven","24055","Kortenberg","Everberg","3078"
"BE2","02000","Vlaams Gewest","BE24","20001","Vlaams-Brabant",,"24000","Leuven","24104","Tervuren","Tervuren","3080"
"BE2","02000","Vlaams Gewest","BE24","20001","Vlaams-Brabant",,"23000","Halle-Vilvoorde","23062","Overijse","Overijse","3090"
"BE2","02000","Vlaams Gewest","BE24","20001","Vlaams-Brabant",,"24000","Leuven","24094","Rotselaar","Rotselaar","3110"
"BE2","02000","Vlaams Gewest","BE24","20001","Vlaams-Brabant",,"24000","Leuven","24094","Rotselaar","Wezemaal","3111"
"BE2","02000","Vlaams Gewest","BE24","20001","Vlaams-Brabant",,"24000","Leuven","24094","Rotselaar","Werchter","3118"
"BE2","02000","Vlaams Gewest","BE24","20001","Vlaams-Brabant",,"24000","Leuven","24109","Tremelo","Tremelo","3120"
"BE2","02000","Vlaams Gewest","BE24","20001","Vlaams-Brabant",,"24000","Leuven","24109","Tremelo","Baal","3128"
"BE2","02000","Vlaams Gewest","BE24","20001","Vlaams-Brabant",,"24000","Leuven","24007","Begijnendijk","Begijnendijk","3130"
"BE2","02000","Vlaams Gewest","BE24","20001","Vlaams-Brabant",,"24000","Leuven","24048","Keerbergen","Keerbergen","3140"
"BE2","02000","Vlaams Gewest","BE24","20001","Vlaams-Brabant",,"24000","Leuven","24033","Haacht","Haacht","3150"
"BE2","02000","Vlaams Gewest","BE24","20001","Vlaams-Brabant",,"24000","Leuven","24014","Boortmeerbeek","Boortmeerbeek","3190"
"BE2","02000","Vlaams Gewest","BE24","20001","Vlaams-Brabant",,"24000","Leuven","24014","Boortmeerbeek","Hever","3191"
"BE2","02000","Vlaams Gewest","BE24","20001","Vlaams-Brabant",,"24000","Leuven","24001","Aarschot","Aarschot","3200"
"BE2","02000","Vlaams Gewest","BE24","20001","Vlaams-Brabant",,"24000","Leuven","24001","Aarschot","Langdorp","3201"
"BE2","02000","Vlaams Gewest","BE24","20001","Vlaams-Brabant",,"24000","Leuven","24001","Aarschot","Rillaar","3202"
"BE2","02000","Vlaams Gewest","BE24","20001","Vlaams-Brabant",,"24000","Leuven","24066","Lubbeek","Lubbeek","3210"
"BE2","02000","Vlaams Gewest","BE24","20001","Vlaams-Brabant",,"24000","Leuven","24066","Lubbeek","Binkom","3211"
"BE2","02000","Vlaams Gewest","BE24","20001","Vlaams-Brabant",,"24000","Leuven","24066","Lubbeek","Pellenberg","3212"
"BE2","02000","Vlaams Gewest","BE24","20001","Vlaams-Brabant",,"24000","Leuven","24043","Holsbeek","Holsbeek","3220"
"BE2","02000","Vlaams Gewest","BE24","20001","Vlaams-Brabant",,"24000","Leuven","24043","Holsbeek","Nieuwrode","3221"
"BE2","02000","Vlaams Gewest","BE24","20001","Vlaams-Brabant",,"24000","Leuven","24134","Scherpenheuvel-Zichem","Scherpenheuvel","3270"
"BE2","02000","Vlaams Gewest","BE24","20001","Vlaams-Brabant",,"24000","Leuven","24134","Scherpenheuvel-Zichem","Averbode","3271"
"BE2","02000","Vlaams Gewest","BE24","20001","Vlaams-Brabant",,"24000","Leuven","24134","Scherpenheuvel-Zichem","Testelt","3272"
"BE2","02000","Vlaams Gewest","BE24","20001","Vlaams-Brabant",,"24000","Leuven","24020","Diest","Diest","3290"
"BE2","02000","Vlaams Gewest","BE24","20001","Vlaams-Brabant",,"24000","Leuven","24020","Diest","Kaggevinne","3293"
"BE2","02000","Vlaams Gewest","BE24","20001","Vlaams-Brabant",,"24000","Leuven","24020","Diest","Molenstede","3294"
"BE2","02000","Vlaams Gewest","BE24","20001","Vlaams-Brabant",,"24000","Leuven","24107","Tienen","Tienen","3300"
"BE2","02000","Vlaams Gewest","BE24","20001","Vlaams-Brabant",,"24000","Leuven","24041","Hoegaarden","Hoegaarden","3320"
"BE2","02000","Vlaams Gewest","BE24","20001","Vlaams-Brabant",,"24000","Leuven","24041","Hoegaarden","Outgaarden","3321"
"BE2","02000","Vlaams Gewest","BE24","20001","Vlaams-Brabant",,"24000","Leuven","24133","Linter","Linter","3350"
"BE2","02000","Vlaams Gewest","BE24","20001","Vlaams-Brabant",,"24000","Leuven","24011","Bierbeek","Bierbeek","3360"
"BE2","02000","Vlaams Gewest","BE24","20001","Vlaams-Brabant",,"24000","Leuven","24016","Boutersem","Boutersem","3370"
"BE2","02000","Vlaams Gewest","BE24","20001","Vlaams-Brabant",,"24000","Leuven","24137","Glabbeek","Glabbeek","3380"
"BE2","02000","Vlaams Gewest","BE24","20001","Vlaams-Brabant",,"24000","Leuven","24137","Glabbeek","Kapellen (Vl.Br.)","3381"
"BE2","02000","Vlaams Gewest","BE24","20001","Vlaams-Brabant",,"24000","Leuven","24137","Glabbeek","Attenrode","3384"
"BE2","02000","Vlaams Gewest","BE24","20001","Vlaams-Brabant",,"24000","Leuven","24135","Tielt-Winge","Tielt","3390"
"BE2","02000","Vlaams Gewest","BE24","20001","Vlaams-Brabant",,"24000","Leuven","24135","Tielt-Winge","Meensel-Kiezegem","3391"
"BE2","02000","Vlaams Gewest","BE24","20001","Vlaams-Brabant",,"24000","Leuven","24059","Landen","Landen","3400"
"BE2","02000","Vlaams Gewest","BE24","20001","Vlaams-Brabant",,"24000","Leuven","24059","Landen","Waasmont","3401"
"BE2","02000","Vlaams Gewest","BE24","20001","Vlaams-Brabant",,"24000","Leuven","24059","Landen","Attenhoven","3404"
"BE2","02000","Vlaams Gewest","BE24","20001","Vlaams-Brabant",,"24000","Leuven","24130","Zoutleeuw","Zoutleeuw","3440"
"BE2","02000","Vlaams Gewest","BE24","20001","Vlaams-Brabant",,"24000","Leuven","24028","Geetbets","Geetbets","3450"
"BE2","02000","Vlaams Gewest","BE24","20001","Vlaams-Brabant",,"24000","Leuven","24028","Geetbets","Rummen","3454"
"BE2","02000","Vlaams Gewest","BE24","20001","Vlaams-Brabant",,"24000","Leuven","24008","Bekkevoort","Bekkevoort","3460"
"BE2","02000","Vlaams Gewest","BE24","20001","Vlaams-Brabant",,"24000","Leuven","24008","Bekkevoort","Molenbeek-Wersbeek","3461"
"BE2","02000","Vlaams Gewest","BE24","20001","Vlaams-Brabant",,"24000","Leuven","24054","Kortenaken","Kortenaken","3470"
"BE2","02000","Vlaams Gewest","BE24","20001","Vlaams-Brabant",,"24000","Leuven","24054","Kortenaken","Hoeleden","3471"
"BE2","02000","Vlaams Gewest","BE24","20001","Vlaams-Brabant",,"24000","Leuven","24054","Kortenaken","Kersbeek-Miskom","3472"
"BE2","02000","Vlaams Gewest","BE24","20001","Vlaams-Brabant",,"24000","Leuven","24054","Kortenaken","Waanrode","3473"
"BE2","02000","Vlaams Gewest","BE22","70000","Limburg",,"71000","Hasselt","71022","Hasselt","Hasselt","3500"
"BE2","02000","Vlaams Gewest","BE22","70000","Limburg",,"71000","Hasselt","71022","Hasselt","Wimmertingen","3501"
"BE2","02000","Vlaams Gewest","BE22","70000","Limburg",,"71000","Hasselt","71022","Hasselt","Kermt","3510"
"BE2","02000","Vlaams Gewest","BE22","70000","Limburg",,"71000","Hasselt","71022","Hasselt","Kuringen","3511"
"BE2","02000","Vlaams Gewest","BE22","70000","Limburg",,"71000","Hasselt","71022","Hasselt","Stevoort","3512"
"BE2","02000","Vlaams Gewest","BE22","70000","Limburg",,"71000","Hasselt","71066","Zonhoven","Zonhoven","3520"
"BE2","02000","Vlaams Gewest","BE22","70000","Limburg",,"72000","Maaseik","72039","Houthalen-Helchteren","Houthalen-Helchteren","3530"
"BE2","02000","Vlaams Gewest","BE22","70000","Limburg",,"71000","Hasselt","71024","Herk-de-Stad","Herk-de-Stad","3540"
"BE2","02000","Vlaams Gewest","BE22","70000","Limburg",,"71000","Hasselt","71020","Halen","Halen","3545"
"BE2","02000","Vlaams Gewest","BE22","70000","Limburg",,"71000","Hasselt","71070","Heusden-Zolder","Heusden-Zolder","3550"
"BE2","02000","Vlaams Gewest","BE22","70000","Limburg",,"71000","Hasselt","71037","Lummen","Lummen","3560"
"BE2","02000","Vlaams Gewest","BE22","70000","Limburg",,"73000","Tongeren","73001","Alken","Alken","3570"
"BE2","02000","Vlaams Gewest","BE22","70000","Limburg",,"71000","Hasselt","71004","Beringen","Beringen","3580"
"BE2","02000","Vlaams Gewest","BE22","70000","Limburg",,"71000","Hasselt","71004","Beringen","Beverlo","3581"
"BE2","02000","Vlaams Gewest","BE22","70000","Limburg",,"71000","Hasselt","71004","Beringen","Koersel","3582"
"BE2","02000","Vlaams Gewest","BE22","70000","Limburg",,"71000","Hasselt","71004","Beringen","Paal","3583"
"BE2","02000","Vlaams Gewest","BE22","70000","Limburg",,"71000","Hasselt","71011","Diepenbeek","Diepenbeek","3590"
"BE2","02000","Vlaams Gewest","BE22","70000","Limburg",,"71000","Hasselt","71016","Genk","Genk","3600"
"BE2","02000","Vlaams Gewest","BE22","70000","Limburg",,"73000","Tongeren","73042","Lanaken","Lanaken","3620"
"BE2","02000","Vlaams Gewest","BE22","70000","Limburg",,"73000","Tongeren","73042","Lanaken","Rekem","3621"
"BE2","02000","Vlaams Gewest","BE22","70000","Limburg",,"73000","Tongeren","73107","Maasmechelen","Maasmechelen","3630"
"BE2","02000","Vlaams Gewest","BE22","70000","Limburg",,"73000","Tongeren","73107","Maasmechelen","Boorsem","3631"
"BE2","02000","Vlaams Gewest","BE22","70000","Limburg",,"72000","Maaseik","72018","Kinrooi","Kinrooi","3640"
"BE2","02000","Vlaams Gewest","BE22","70000","Limburg",,"72000","Maaseik","72041","Dilsen-Stokkem","Dilsen-Stokkem","3650"
"BE2","02000","Vlaams Gewest","BE22","70000","Limburg",,"71000","Hasselt","71047","Opglabbeek","Opglabbeek","3660"
"BE2","02000","Vlaams Gewest","BE22","70000","Limburg",,"71000","Hasselt","71002","As","As","3665"
"BE2","02000","Vlaams Gewest","BE22","70000","Limburg",,"71000","Hasselt","71002","As","Niel-bij-As","3668"
"BE2","02000","Vlaams Gewest","BE22","70000","Limburg",,"72000","Maaseik","72040","Meeuwen-Gruitrode","Meeuwen-Gruitrode","3670"
"BE2","02000","Vlaams Gewest","BE22","70000","Limburg",,"72000","Maaseik","72021","Maaseik","Maaseik","3680"
"BE2","02000","Vlaams Gewest","BE22","70000","Limburg",,"71000","Hasselt","71067","Zutendaal","Zutendaal","3690"
"BE2","02000","Vlaams Gewest","BE22","70000","Limburg",,"73000","Tongeren","73083","Tongeren","Tongeren","3700"
"BE2","02000","Vlaams Gewest","BE22","70000","Limburg",,"73000","Tongeren","73028","Herstappe","Herstappe","3717"
"BE2","02000","Vlaams Gewest","BE22","70000","Limburg",,"73000","Tongeren","73040","Kortessem","Kortessem","3720"
"BE2","02000","Vlaams Gewest","BE22","70000","Limburg",,"73000","Tongeren","73040","Kortessem","Vliermaalroot","3721"
"BE2","02000","Vlaams Gewest","BE22","70000","Limburg",,"73000","Tongeren","73040","Kortessem","Wintershoven","3722"
"BE2","02000","Vlaams Gewest","BE22","70000","Limburg",,"73000","Tongeren","73040","Kortessem","Guigoven","3723"
"BE2","02000","Vlaams Gewest","BE22","70000","Limburg",,"73000","Tongeren","73040","Kortessem","Vliermaal","3724"
"BE2","02000","Vlaams Gewest","BE22","70000","Limburg",,"73000","Tongeren","73032","Hoeselt","Hoeselt","3730"
"BE2","02000","Vlaams Gewest","BE22","70000","Limburg",,"73000","Tongeren","73032","Hoeselt","Schalkhoven","3732"
"BE2","02000","Vlaams Gewest","BE22","70000","Limburg",,"73000","Tongeren","73006","Bilzen","Bilzen","3740"
"BE2","02000","Vlaams Gewest","BE22","70000","Limburg",,"73000","Tongeren","73006","Bilzen","Martenslinde","3742"
"BE2","02000","Vlaams Gewest","BE22","70000","Limburg",,"73000","Tongeren","73006","Bilzen","Hoelbeek","3746"
"BE2","02000","Vlaams Gewest","BE22","70000","Limburg",,"73000","Tongeren","73066","Riemst","Riemst","3770"
"BE2","02000","Vlaams Gewest","BE22","70000","Limburg",,"73000","Tongeren","73109","Voeren","Voeren","3790"
"BE2","02000","Vlaams Gewest","BE22","70000","Limburg",,"73000","Tongeren","73109","Voeren","Remersdaal","3791"
"BE2","02000","Vlaams Gewest","BE22","70000","Limburg",,"73000","Tongeren","73109","Voeren","Sint-Pieters-Voeren","3792"
"BE2","02000","Vlaams Gewest","BE22","70000","Limburg",,"73000","Tongeren","73109","Voeren","Teuven","3793"
"BE2","02000","Vlaams Gewest","BE22","70000","Limburg",,"73000","Tongeren","73109","Voeren","s Gravenvoeren","3798"
"BE2","02000","Vlaams Gewest","BE22","70000","Limburg",,"71000","Hasselt","71053","Sint-Truiden","Sint-Truiden","3800"
"BE2","02000","Vlaams Gewest","BE22","70000","Limburg",,"71000","Hasselt","71053","Sint-Truiden","Gorsem","3803"
"BE2","02000","Vlaams Gewest","BE22","70000","Limburg",,"71000","Hasselt","71053","Sint-Truiden","Velm","3806"
"BE2","02000","Vlaams Gewest","BE22","70000","Limburg",,"73000","Tongeren","73098","Wellen","Wellen","3830"
"BE2","02000","Vlaams Gewest","BE22","70000","Limburg",,"73000","Tongeren","73098","Wellen","Herten","3831"
"BE2","02000","Vlaams Gewest","BE22","70000","Limburg",,"73000","Tongeren","73098","Wellen","Ulbeek","3832"
"BE2","02000","Vlaams Gewest","BE22","70000","Limburg",,"73000","Tongeren","73009","Borgloon","Borgloon","3840"
"BE2","02000","Vlaams Gewest","BE22","70000","Limburg",,"71000","Hasselt","71045","Nieuwerkerken","Nieuwerkerken (Limb.)","3850"
"BE2","02000","Vlaams Gewest","BE22","70000","Limburg",,"73000","Tongeren","73022","Heers","Heers","3870"
"BE2","02000","Vlaams Gewest","BE22","70000","Limburg",,"71000","Hasselt","71017","Gingelom","Gingelom","3890"
"BE2","02000","Vlaams Gewest","BE22","70000","Limburg",,"71000","Hasselt","71017","Gingelom","Buvingen","3891"
"BE2","02000","Vlaams Gewest","BE22","70000","Limburg",,"72000","Maaseik","72029","Overpelt","Overpelt","3900"
"BE2","02000","Vlaams Gewest","BE22","70000","Limburg",,"72000","Maaseik","72025","Neerpelt","Neerpelt","3910"
"BE2","02000","Vlaams Gewest","BE22","70000","Limburg",,"72000","Maaseik","72020","Lommel","Lommel","3920"
"BE2","02000","Vlaams Gewest","BE22","70000","Limburg",,"72000","Maaseik","72037","Hamont-Achel","Hamont-Achel","3930"
"BE2","02000","Vlaams Gewest","BE22","70000","Limburg",,"72000","Maaseik","72038","Hechtel-Eksel","Hechtel-Eksel","3940"
"BE2","02000","Vlaams Gewest","BE22","70000","Limburg",,"72000","Maaseik","72038","Hechtel-Eksel","Eksel","3941"
"BE2","02000","Vlaams Gewest","BE22","70000","Limburg",,"71000","Hasselt","71069","Ham","Kwaad-Mechelen","3945"
"BE2","02000","Vlaams Gewest","BE22","70000","Limburg",,"72000","Maaseik","72003","Bocholt","Bocholt","3950"
"BE2","02000","Vlaams Gewest","BE22","70000","Limburg",,"72000","Maaseik","72004","Bree","Bree","3960"
"BE2","02000","Vlaams Gewest","BE22","70000","Limburg",,"71000","Hasselt","71034","Leopoldsburg","Leopoldsburg","3970"
"BE2","02000","Vlaams Gewest","BE22","70000","Limburg",,"71000","Hasselt","71034","Leopoldsburg","Heppen","3971"
"BE2","02000","Vlaams Gewest","BE22","70000","Limburg",,"71000","Hasselt","71057","Tessenderlo","Tessenderlo","3980"
"BE2","02000","Vlaams Gewest","BE22","70000","Limburg",,"72000","Maaseik","72030","Peer","Peer","3990"
"BE3","03000","Waals Gewest","BE33","60000","Luik",,"62000","Luik","62063","Liège","Liège","4000"
"BE3","03000","Waals Gewest","BE33","60000","Luik",,"62000","Luik","62063","Liège","Bressoux","4020"
"BE3","03000","Waals Gewest","BE33","60000","Luik",,"62000","Luik","62063","Liège","Grivegnée","4030"
"BE3","03000","Waals Gewest","BE33","60000","Luik",,"62000","Luik","62063","Liège","Angleur","4031"
"BE3","03000","Waals Gewest","BE33","60000","Luik",,"62000","Luik","62063","Liège","Chênée","4032"
"BE3","03000","Waals Gewest","BE33","60000","Luik",,"62000","Luik","62051","Herstal","Herstal","4040"
"BE3","03000","Waals Gewest","BE33","60000","Luik",,"62000","Luik","62051","Herstal","Milmort","4041"
"BE3","03000","Waals Gewest","BE33","60000","Luik",,"62000","Luik","62051","Herstal","Liers","4042"
"BE3","03000","Waals Gewest","BE33","60000","Luik",,"62000","Luik","62022","Chaudfontaine","Chaudfontaine","4050"
"BE3","03000","Waals Gewest","BE33","60000","Luik",,"62000","Luik","62022","Chaudfontaine","Vaux-sous-Chèvremont","4051"
"BE3","03000","Waals Gewest","BE33","60000","Luik",,"62000","Luik","62022","Chaudfontaine","Beaufays","4052"
"BE3","03000","Waals Gewest","BE33","60000","Luik",,"62000","Luik","62022","Chaudfontaine","Embourg","4053"
"BE3","03000","Waals Gewest","BE33","60000","Luik",,"62000","Luik","62096","Seraing","Seraing","4100"
"BE3","03000","Waals Gewest","BE33","60000","Luik",,"62000","Luik","62096","Seraing","Jemeppe-sur-Meuse","4101"
"BE3","03000","Waals Gewest","BE33","60000","Luik",,"62000","Luik","62096","Seraing","Ougrée","4102"
"BE3","03000","Waals Gewest","BE33","60000","Luik",,"62000","Luik","62121","Neupré","Neupré","4120"
"BE3","03000","Waals Gewest","BE33","60000","Luik",,"62000","Luik","62121","Neupré","Neuville-en-Condroz","4121"
"BE3","03000","Waals Gewest","BE33","60000","Luik",,"62000","Luik","62121","Neupré","Plainevaux","4122"
"BE3","03000","Waals Gewest","BE33","60000","Luik",,"62000","Luik","62032","Esneux","Esneux","4130"
"BE3","03000","Waals Gewest","BE33","60000","Luik",,"62000","Luik","62100","Sprimont","Sprimont","4140"
"BE3","03000","Waals Gewest","BE33","60000","Luik",,"62000","Luik","62100","Sprimont","Louveigné","4141"
"BE3","03000","Waals Gewest","BE33","60000","Luik",,"61000","Hoei","61079","Anthisnes","Anthisnes","4160"
"BE3","03000","Waals Gewest","BE33","60000","Luik",,"61000","Hoei","61079","Anthisnes","Villers-aux-Tours","4161"
"BE3","03000","Waals Gewest","BE33","60000","Luik",,"61000","Hoei","61079","Anthisnes","Hody","4162"
"BE3","03000","Waals Gewest","BE33","60000","Luik",,"61000","Hoei","61079","Anthisnes","Tavier","4163"
"BE3","03000","Waals Gewest","BE33","60000","Luik",,"62000","Luik","62026","Comblain-au-Pont","Comblain-au-Pont","4170"
"BE3","03000","Waals Gewest","BE33","60000","Luik",,"62000","Luik","62026","Comblain-au-Pont","Poulseur","4171"
"BE3","03000","Waals Gewest","BE33","60000","Luik",,"61000","Hoei","61024","Hamoir","Comblain-Fairon","4180"
"BE3","03000","Waals Gewest","BE33","60000","Luik",,"61000","Hoei","61024","Hamoir","Filot","4181"
"BE3","03000","Waals Gewest","BE33","60000","Luik",,"61000","Hoei","61019","Ferrières","Ferrières","4190"
"BE3","03000","Waals Gewest","BE33","60000","Luik",,"61000","Hoei","61010","Burdinne","Burdinne","4210"
"BE3","03000","Waals Gewest","BE33","60000","Luik",,"61000","Hoei","61028","Héron","Héron","4217"
"BE3","03000","Waals Gewest","BE33","60000","Luik",,"61000","Hoei","61028","Héron","Couthuin","4218"
"BE3","03000","Waals Gewest","BE33","60000","Luik",,"64000","Borgworm","64075","Wasseiges","Wasseiges","4219"
"BE3","03000","Waals Gewest","BE33","60000","Luik",,"64000","Borgworm","64029","Geer","Geer","4250"
"BE3","03000","Waals Gewest","BE33","60000","Luik",,"64000","Borgworm","64029","Geer","Omal","4252"
"BE3","03000","Waals Gewest","BE33","60000","Luik",,"64000","Borgworm","64029","Geer","Darion","4253"
"BE3","03000","Waals Gewest","BE33","60000","Luik",,"64000","Borgworm","64029","Geer","Ligney","4254"
"BE3","03000","Waals Gewest","BE33","60000","Luik",,"64000","Borgworm","64008","Berloz","Berloz","4257"
"BE3","03000","Waals Gewest","BE33","60000","Luik",,"64000","Borgworm","64015","Braives","Braives","4260"
"BE3","03000","Waals Gewest","BE33","60000","Luik",,"64000","Borgworm","64015","Braives","Latinne","4261"
"BE3","03000","Waals Gewest","BE33","60000","Luik",,"64000","Borgworm","64015","Braives","Tourinne/Liege","4263"
"BE3","03000","Waals Gewest","BE33","60000","Luik",,"64000","Borgworm","64034","Hannut","Hannut","4280"
"BE3","03000","Waals Gewest","BE33","60000","Luik",,"64000","Borgworm","64047","Lincent","Lincent","4287"
"BE3","03000","Waals Gewest","BE33","60000","Luik",,"64000","Borgworm","64074","Waremme","Waremme","4300"
"BE3","03000","Waals Gewest","BE33","60000","Luik",,"64000","Borgworm","64076","Faimes","Faimes","4317"
"BE3","03000","Waals Gewest","BE33","60000","Luik",,"62000","Luik","62006","Awans","Awans","4340"
"BE3","03000","Waals Gewest","BE33","60000","Luik",,"62000","Luik","62006","Awans","Hognoul","4342"
"BE3","03000","Waals Gewest","BE33","60000","Luik",,"64000","Borgworm","64025","Fexhe-le-Haut-Clocher","Fexhe-le-Haut-Clocher","4347"
"BE3","03000","Waals Gewest","BE33","60000","Luik",,"64000","Borgworm","64063","Remicourt","Remicourt","4350"
"BE3","03000","Waals Gewest","BE33","60000","Luik",,"64000","Borgworm","64063","Remicourt","Hodeige","4351"
"BE3","03000","Waals Gewest","BE33","60000","Luik",,"64000","Borgworm","64023","Donceel","Donceel","4357"
"BE3","03000","Waals Gewest","BE33","60000","Luik",,"64000","Borgworm","64056","Oreye","Oreye","4360"
"BE3","03000","Waals Gewest","BE33","60000","Luik",,"64000","Borgworm","64021","Crisnée","Crisnée","4367"
"BE3","03000","Waals Gewest","BE33","60000","Luik",,"62000","Luik","62120","Flémalle","Flémalle","4400"
"BE3","03000","Waals Gewest","BE33","60000","Luik",,"62000","Luik","62093","Saint-Nicolas","Montegnée","4420"
"BE3","03000","Waals Gewest","BE33","60000","Luik",,"62000","Luik","62003","Ans","Ans","4430"
"BE3","03000","Waals Gewest","BE33","60000","Luik",,"62000","Luik","62003","Ans","Loncin","4431"
"BE3","03000","Waals Gewest","BE33","60000","Luik",,"62000","Luik","62003","Ans","Alleur","4432"
"BE3","03000","Waals Gewest","BE33","60000","Luik",,"62000","Luik","62060","Juprelle","Juprelle","4450"
"BE3","03000","Waals Gewest","BE33","60000","Luik",,"62000","Luik","62060","Juprelle","Voroux-lez-Liers","4451"
"BE3","03000","Waals Gewest","BE33","60000","Luik",,"62000","Luik","62060","Juprelle","Paifve","4452"
"BE3","03000","Waals Gewest","BE33","60000","Luik",,"62000","Luik","62060","Juprelle","Villers-Saint-Siméon","4453"
"BE3","03000","Waals Gewest","BE33","60000","Luik",,"62000","Luik","62060","Juprelle","Fexhe-Slins","4458"
"BE3","03000","Waals Gewest","BE33","60000","Luik",,"62000","Luik","62118","Grâce-Hollogne","Grâce-Hollogne","4460"
"BE3","03000","Waals Gewest","BE33","60000","Luik",,"64000","Borgworm","64065","Saint-Georges-sur-Meus","Saint-Georges-sur-Meuse","4470"
"BE3","03000","Waals Gewest","BE33","60000","Luik",,"61000","Hoei","61080","Engis","Engis","4480"
"BE3","03000","Waals Gewest","BE33","60000","Luik",,"61000","Hoei","61031","Huy","Ben-Ahin","4500"
"BE3","03000","Waals Gewest","BE33","60000","Luik",,"61000","Hoei","61072","Wanze","Wanze","4520"
"BE3","03000","Waals Gewest","BE33","60000","Luik",,"61000","Hoei","61068","Villers-le-Bouillet","Villers-le-Bouillet","4530"
"BE3","03000","Waals Gewest","BE33","60000","Luik",,"61000","Hoei","61063","Verlaine","Verlaine","4537"
"BE3","03000","Waals Gewest","BE33","60000","Luik",,"61000","Hoei","61003","Amay","Amay","4540"
"BE3","03000","Waals Gewest","BE33","60000","Luik",,"61000","Hoei","61043","Nandrin","Nandrin","4550"
"BE3","03000","Waals Gewest","BE33","60000","Luik",,"61000","Hoei","61081","Tinlot","Tinlot","4557"
"BE3","03000","Waals Gewest","BE33","60000","Luik",,"61000","Hoei","61012","Clavier","Clavier","4560"
"BE3","03000","Waals Gewest","BE33","60000","Luik",,"61000","Hoei","61039","Marchin","Marchin","4570"
"BE3","03000","Waals Gewest","BE33","60000","Luik",,"61000","Hoei","61041","Modave","Modave","4577"
"BE3","03000","Waals Gewest","BE33","60000","Luik",,"61000","Hoei","61048","Ouffet","Ouffet","4590"
"BE3","03000","Waals Gewest","BE33","60000","Luik",,"62000","Luik","62108","Visé","Visé","4600"
"BE3","03000","Waals Gewest","BE33","60000","Luik",,"62000","Luik","62108","Visé","Argenteau","4601"
"BE3","03000","Waals Gewest","BE33","60000","Luik",,"62000","Luik","62108","Visé","Cheratte","4602"
"BE3","03000","Waals Gewest","BE33","60000","Luik",,"62000","Luik","62027","Dalhem","Saint-André","4606"
"BE3","03000","Waals Gewest","BE33","60000","Luik",,"62000","Luik","62027","Dalhem","Dalhem","4607"
"BE3","03000","Waals Gewest","BE33","60000","Luik",,"62000","Luik","62027","Dalhem","Neufchâteau/Liege","4608"
"BE3","03000","Waals Gewest","BE33","60000","Luik",,"62000","Luik","62015","Beyne-Heusay","Beyne-Heusay","4610"
"BE3","03000","Waals Gewest","BE33","60000","Luik",,"62000","Luik","62038","Fléron","Fléron","4620"
"BE3","03000","Waals Gewest","BE33","60000","Luik",,"62000","Luik","62038","Fléron","Retinne","4621"
"BE3","03000","Waals Gewest","BE33","60000","Luik",,"62000","Luik","62038","Fléron","Magnée","4623"
"BE3","03000","Waals Gewest","BE33","60000","Luik",,"62000","Luik","62038","Fléron","Romsée","4624"
"BE3","03000","Waals Gewest","BE33","60000","Luik",,"62000","Luik","62099","Soumagne","Soumagne","4630"
"BE3","03000","Waals Gewest","BE33","60000","Luik",,"62000","Luik","62099","Soumagne","Evegnée","4631"
"BE3","03000","Waals Gewest","BE33","60000","Luik",,"62000","Luik","62099","Soumagne","Cérexhe-Heuseux","4632"
"BE3","03000","Waals Gewest","BE33","60000","Luik",,"62000","Luik","62099","Soumagne","Melen","4633"
"BE3","03000","Waals Gewest","BE33","60000","Luik",,"63000","Verviers","63035","Herve","Herve","4650"
"BE3","03000","Waals Gewest","BE33","60000","Luik",,"63000","Verviers","63035","Herve","Battice","4651"
"BE3","03000","Waals Gewest","BE33","60000","Luik",,"63000","Verviers","63035","Herve","Xhendelesse","4652"
"BE3","03000","Waals Gewest","BE33","60000","Luik",,"63000","Verviers","63035","Herve","Bolland","4653"
"BE3","03000","Waals Gewest","BE33","60000","Luik",,"63000","Verviers","63035","Herve","Charneux","4654"
"BE3","03000","Waals Gewest","BE33","60000","Luik",,"62000","Luik","62119","Blégny","Blégny","4670"
"BE3","03000","Waals Gewest","BE33","60000","Luik",,"62000","Luik","62119","Blégny","Barchon","4671"
"BE3","03000","Waals Gewest","BE33","60000","Luik",,"62000","Luik","62119","Blégny","Saint-Remy/Liege","4672"
"BE3","03000","Waals Gewest","BE33","60000","Luik",,"62000","Luik","62079","Oupeye","Oupeye","4680"
"BE3","03000","Waals Gewest","BE33","60000","Luik",,"62000","Luik","62079","Oupeye","Hermalle-sous-Argenteau","4681"
"BE3","03000","Waals Gewest","BE33","60000","Luik",,"62000","Luik","62079","Oupeye","Heure-le-Romain","4682"
"BE3","03000","Waals Gewest","BE33","60000","Luik",,"62000","Luik","62079","Oupeye","Vivegnis","4683"
"BE3","03000","Waals Gewest","BE33","60000","Luik",,"62000","Luik","62079","Oupeye","Haccourt","4684"
"BE3","03000","Waals Gewest","BE33","60000","Luik",,"62000","Luik","62011","Bassenge","Bassenge","4690"
"BE3","03000","Waals Gewest","BE33","60000","Luik",,"63000","Verviers","63023","Eupen","Eupen","4700"
"BE3","03000","Waals Gewest","BE33","60000","Luik",,"63000","Verviers","63023","Eupen","Kettenis","4701"
"BE3","03000","Waals Gewest","BE33","60000","Luik",,"63000","Verviers","63048","Lontzen","Lontzen","4710"
"BE3","03000","Waals Gewest","BE33","60000","Luik",,"63000","Verviers","63048","Lontzen","Walhorn","4711"
"BE3","03000","Waals Gewest","BE33","60000","Luik",,"63000","Verviers","63040","Kelmis","Kelmis/La Calamine","4720"
"BE3","03000","Waals Gewest","BE33","60000","Luik",,"63000","Verviers","63040","Kelmis","Neu-Moresnet","4721"
"BE3","03000","Waals Gewest","BE33","60000","Luik",,"63000","Verviers","63040","Kelmis","Hergenrath","4728"
"BE3","03000","Waals Gewest","BE33","60000","Luik",,"63000","Verviers","63061","Raeren","Raeren","4730"
"BE3","03000","Waals Gewest","BE33","60000","Luik",,"63000","Verviers","63061","Raeren","Eynatten","4731"
"BE3","03000","Waals Gewest","BE33","60000","Luik",,"63000","Verviers","63013","Bütgenbach","Bütgenbach/Butgenbach","4750"
"BE3","03000","Waals Gewest","BE33","60000","Luik",,"63000","Verviers","63012","Büllingen","Büllingen/Bullange","4760"
"BE3","03000","Waals Gewest","BE33","60000","Luik",,"63000","Verviers","63012","Büllingen","Rocherath","4761"
"BE3","03000","Waals Gewest","BE33","60000","Luik",,"63000","Verviers","63001","Amel","Amel/Amblève","4770"
"BE3","03000","Waals Gewest","BE33","60000","Luik",,"63000","Verviers","63001","Amel","Heppenbach","4771"
"BE3","03000","Waals Gewest","BE33","60000","Luik",,"63000","Verviers","63067","Sankt Vith","Sankt Vith","4780"
"BE3","03000","Waals Gewest","BE33","60000","Luik",,"63000","Verviers","63067","Sankt Vith","Schönberg/Schoenberg","4782"
"BE3","03000","Waals Gewest","BE33","60000","Luik",,"63000","Verviers","63067","Sankt Vith","Lommersweiler","4783"
"BE3","03000","Waals Gewest","BE33","60000","Luik",,"63000","Verviers","63067","Sankt Vith","Crombach","4784"
"BE3","03000","Waals Gewest","BE33","60000","Luik",,"63000","Verviers","63087","Burg-Reuland","Burg-Reuland","4790"
"BE3","03000","Waals Gewest","BE33","60000","Luik",,"63000","Verviers","63087","Burg-Reuland","Thommen","4791"
"BE3","03000","Waals Gewest","BE33","60000","Luik",,"63000","Verviers","63079","Verviers","Verviers","4800"
"BE3","03000","Waals Gewest","BE33","60000","Luik",,"63000","Verviers","63079","Verviers","Stembert","4801"
"BE3","03000","Waals Gewest","BE33","60000","Luik",,"63000","Verviers","63079","Verviers","Heusy","4802"
"BE3","03000","Waals Gewest","BE33","60000","Luik",,"63000","Verviers","63020","Dison","Dison","4820"
"BE3","03000","Waals Gewest","BE33","60000","Luik",,"63000","Verviers","63020","Dison","Andrimont","4821"
"BE3","03000","Waals Gewest","BE33","60000","Luik",,"63000","Verviers","63046","Limbourg","Limbourg","4830"
"BE3","03000","Waals Gewest","BE33","60000","Luik",,"63000","Verviers","63046","Limbourg","Bilstain","4831"
"BE3","03000","Waals Gewest","BE33","60000","Luik",,"63000","Verviers","63046","Limbourg","Goé","4834"
"BE3","03000","Waals Gewest","BE33","60000","Luik",,"63000","Verviers","63004","Baelen","Baelen/Liege","4837"
"BE3","03000","Waals Gewest","BE33","60000","Luik",,"63000","Verviers","63084","Welkenraedt","Welkenraedt","4840"
"BE3","03000","Waals Gewest","BE33","60000","Luik",,"63000","Verviers","63084","Welkenraedt","Henri-Chapelle","4841"
"BE3","03000","Waals Gewest","BE33","60000","Luik",,"63000","Verviers","63038","Jalhay","Jalhay","4845"
"BE3","03000","Waals Gewest","BE33","60000","Luik",,"63000","Verviers","63088","Plombières","Plombières","4850"
"BE3","03000","Waals Gewest","BE33","60000","Luik",,"63000","Verviers","63088","Plombières","Gemmenich","4851"
"BE3","03000","Waals Gewest","BE33","60000","Luik",,"63000","Verviers","63088","Plombières","Hombourg","4852"
"BE3","03000","Waals Gewest","BE33","60000","Luik",,"63000","Verviers","63058","Pepinster","Pepinster","4860"
"BE3","03000","Waals Gewest","BE33","60000","Luik",,"63000","Verviers","63058","Pepinster","Soiron","4861"
"BE3","03000","Waals Gewest","BE33","60000","Luik",,"62000","Luik","62122","Trooz","Trooz","4870"
"BE3","03000","Waals Gewest","BE33","60000","Luik",,"63000","Verviers","63057","Olne","Olne","4877"
"BE3","03000","Waals Gewest","BE33","60000","Luik",,"63000","Verviers","63003","Aubel","Aubel","4880"
"BE3","03000","Waals Gewest","BE33","60000","Luik",,"63000","Verviers","63089","Thimister-Clermont","Thimister-Clermont","4890"
"BE3","03000","Waals Gewest","BE33","60000","Luik",,"63000","Verviers","63072","Spa","Spa","4900"
"BE3","03000","Waals Gewest","BE33","60000","Luik",,"63000","Verviers","63076","Theux","Theux","4910"
"BE3","03000","Waals Gewest","BE33","60000","Luik",,"62000","Luik","62009","Aywaille","Aywaille","4920"
"BE3","03000","Waals Gewest","BE33","60000","Luik",,"63000","Verviers","63080","Waimes","Waimes","4950"
"BE3","03000","Waals Gewest","BE33","60000","Luik",,"63000","Verviers","63049","Malmedy","Malmedy","4960"
"BE3","03000","Waals Gewest","BE33","60000","Luik",,"63000","Verviers","63073","Stavelot","Stavelot","4970"
"BE3","03000","Waals Gewest","BE33","60000","Luik",,"63000","Verviers","63086","Trois-Ponts","Trois-Ponts","4980"
"BE3","03000","Waals Gewest","BE33","60000","Luik",,"63000","Verviers","63086","Trois-Ponts","Basse-Bodeux","4983"
"BE3","03000","Waals Gewest","BE33","60000","Luik",,"63000","Verviers","63075","Stoumont","Stoumont","4987"
"BE3","03000","Waals Gewest","BE33","60000","Luik",,"63000","Verviers","63045","Lierneux","Lierneux","4990"
"BE3","03000","Waals Gewest","BE35","90000","Namen",,"92000","Namen","92094","Namur","Namur","5000"
"BE3","03000","Waals Gewest","BE35","90000","Namen",,"92000","Namen","92094","Namur","Belgrade","5001"
"BE3","03000","Waals Gewest","BE35","90000","Namen",,"92000","Namen","92094","Namur","Saint-Servais","5002"
"BE3","03000","Waals Gewest","BE35","90000","Namen",,"92000","Namen","92094","Namur","Saint-Marc","5003"
"BE3","03000","Waals Gewest","BE35","90000","Namen",,"92000","Namen","92094","Namur","Bouge","5004"
"BE3","03000","Waals Gewest","BE35","90000","Namen",,"92000","Namen","92094","Namur","Champion","5020"
"BE3","03000","Waals Gewest","BE35","90000","Namen",,"92000","Namen","92094","Namur","Boninne","5021"
"BE3","03000","Waals Gewest","BE35","90000","Namen",,"92000","Namen","92094","Namur","Cognelée","5022"
"BE3","03000","Waals Gewest","BE35","90000","Namen",,"92000","Namen","92094","Namur","Gelbressée","5024"
"BE3","03000","Waals Gewest","BE35","90000","Namen",,"92000","Namen","92142","Gembloux","Gembloux","5030"
"BE3","03000","Waals Gewest","BE35","90000","Namen",,"92000","Namen","92142","Gembloux","Grand-Leez","5031"
"BE3","03000","Waals Gewest","BE35","90000","Namen",,"92000","Namen","92142","Gembloux","Bossière","5032"
"BE3","03000","Waals Gewest","BE35","90000","Namen",,"92000","Namen","92137","Sambreville","Sambreville","5060"
"BE3","03000","Waals Gewest","BE35","90000","Namen",,"92000","Namen","92048","Fosses-la-Ville","Fosses-la-Ville","5070"
"BE3","03000","Waals Gewest","BE35","90000","Namen",,"92000","Namen","92141","La Bruyère","La Bruyère","5080"
"BE3","03000","Waals Gewest","BE35","90000","Namen",,"92000","Namen","92141","La Bruyère","Bovesse","5081"
"BE3","03000","Waals Gewest","BE35","90000","Namen",,"92000","Namen","92094","Namur","Dave","5100"
"BE3","03000","Waals Gewest","BE35","90000","Namen",,"92000","Namen","92094","Namur","Erpent","5101"
"BE3","03000","Waals Gewest","BE35","90000","Namen",,"92000","Namen","92114","Sombreffe","Sombreffe","5140"
"BE3","03000","Waals Gewest","BE35","90000","Namen",,"92000","Namen","92045","Floreffe","Floreffe","5150"
"BE3","03000","Waals Gewest","BE35","90000","Namen",,"92000","Namen","92101","Profondeville","Profondeville","5170"
"BE3","03000","Waals Gewest","BE35","90000","Namen",,"92000","Namen","92140","Jemeppe-sur-Sambre","Jemeppe-sur-Sambre","5190"
"BE3","03000","Waals Gewest","BE35","90000","Namen",,"92000","Namen","92003","Andenne","Andenne","5300"
"BE3","03000","Waals Gewest","BE35","90000","Namen",,"92000","Namen","92035","Eghezée","Eghezée","5310"
"BE3","03000","Waals Gewest","BE35","90000","Namen",,"92000","Namen","92006","Assesse","Assesse","5330"
"BE3","03000","Waals Gewest","BE35","90000","Namen",,"92000","Namen","92006","Assesse","Crupet","5332"
"BE3","03000","Waals Gewest","BE35","90000","Namen",,"92000","Namen","92006","Assesse","Sorinne-la-Longue","5333"
"BE3","03000","Waals Gewest","BE35","90000","Namen",,"92000","Namen","92006","Assesse","Florée","5334"
"BE3","03000","Waals Gewest","BE35","90000","Namen",,"92000","Namen","92006","Assesse","Courrière","5336"
"BE3","03000","Waals Gewest","BE35","90000","Namen",,"92000","Namen","92054","Gesves","Gesves","5340"
"BE3","03000","Waals Gewest","BE35","90000","Namen",,"92000","Namen","92097","Ohey","Ohey","5350"
"BE3","03000","Waals Gewest","BE35","90000","Namen",,"92000","Namen","92097","Ohey","Haillot","5351"
"BE3","03000","Waals Gewest","BE35","90000","Namen",,"92000","Namen","92097","Ohey","Perwez-Haillot","5352"
"BE3","03000","Waals Gewest","BE35","90000","Namen",,"92000","Namen","92097","Ohey","Goesnes","5353"
"BE3","03000","Waals Gewest","BE35","90000","Namen",,"92000","Namen","92097","Ohey","Jallet","5354"
"BE3","03000","Waals Gewest","BE35","90000","Namen",,"91000","Dinant","91059","Hamois","Hamois","5360"
"BE3","03000","Waals Gewest","BE35","90000","Namen",,"91000","Dinant","91059","Hamois","Mohiville","5361"
"BE3","03000","Waals Gewest","BE35","90000","Namen",,"91000","Dinant","91059","Hamois","Achet","5362"
"BE3","03000","Waals Gewest","BE35","90000","Namen",,"91000","Dinant","91059","Hamois","Emptinne","5363"
"BE3","03000","Waals Gewest","BE35","90000","Namen",,"91000","Dinant","91059","Hamois","Schaltin","5364"
"BE3","03000","Waals Gewest","BE35","90000","Namen",,"91000","Dinant","91064","Havelange","Havelange","5370"
"BE3","03000","Waals Gewest","BE35","90000","Namen",,"91000","Dinant","91064","Havelange","Méan","5372"
"BE3","03000","Waals Gewest","BE35","90000","Namen",,"91000","Dinant","91064","Havelange","Maffe","5374"
"BE3","03000","Waals Gewest","BE35","90000","Namen",,"91000","Dinant","91064","Havelange","Miécret","5376"
"BE3","03000","Waals Gewest","BE35","90000","Namen",,"91000","Dinant","91120","Somme-Leuze","Somme-Leuze","5377"
"BE3","03000","Waals Gewest","BE35","90000","Namen",,"92000","Namen","92138","Fernelmont","Fernelmont","5380"
"BE3","03000","Waals Gewest","BE35","90000","Namen",,"91000","Dinant","91034","Dinant","Anseremme","5500"
"BE3","03000","Waals Gewest","BE35","90000","Namen",,"91000","Dinant","91034","Dinant","Lisogne","5501"
"BE3","03000","Waals Gewest","BE35","90000","Namen",,"91000","Dinant","91034","Dinant","Thynes","5502"
"BE3","03000","Waals Gewest","BE35","90000","Namen",,"91000","Dinant","91034","Dinant","Sorinnes","5503"
"BE3","03000","Waals Gewest","BE35","90000","Namen",,"91000","Dinant","91034","Dinant","Foy-Notre-Dame","5504"
"BE3","03000","Waals Gewest","BE35","90000","Namen",,"91000","Dinant","91103","Onhaye","Onhaye","5520"
"BE3","03000","Waals Gewest","BE35","90000","Namen",,"91000","Dinant","91103","Onhaye","Serville","5521"
"BE3","03000","Waals Gewest","BE35","90000","Namen",,"91000","Dinant","91103","Onhaye","Falaën","5522"
"BE3","03000","Waals Gewest","BE35","90000","Namen",,"91000","Dinant","91103","Onhaye","Sommière","5523"
"BE3","03000","Waals Gewest","BE35","90000","Namen",,"91000","Dinant","91103","Onhaye","Gerin","5524"
"BE3","03000","Waals Gewest","BE35","90000","Namen",,"91000","Dinant","91141","Yvoir","Yvoir","5530"
"BE3","03000","Waals Gewest","BE35","90000","Namen",,"91000","Dinant","91005","Anhée","Anhée","5537"
"BE3","03000","Waals Gewest","BE35","90000","Namen",,"91000","Dinant","91142","Hastière","Hastière","5540"
"BE3","03000","Waals Gewest","BE35","90000","Namen",,"91000","Dinant","91142","Hastière","Hastière-par-Delà","5541"
"BE3","03000","Waals Gewest","BE35","90000","Namen",,"91000","Dinant","91142","Hastière","Blaimont","5542"
"BE3","03000","Waals Gewest","BE35","90000","Namen",,"91000","Dinant","91142","Hastière","Heer","5543"
"BE3","03000","Waals Gewest","BE35","90000","Namen",,"91000","Dinant","91142","Hastière","Agimont","5544"
"BE3","03000","Waals Gewest","BE35","90000","Namen",,"91000","Dinant","91143","Vresse-sur-Semois","Vresse-sur-Semois","5550"
"BE3","03000","Waals Gewest","BE35","90000","Namen",,"91000","Dinant","91015","Bièvre","Bièvre","5555"
"BE3","03000","Waals Gewest","BE35","90000","Namen",,"91000","Dinant","91072","Houyet","Houyet","5560"
"BE3","03000","Waals Gewest","BE35","90000","Namen",,"91000","Dinant","91072","Houyet","Celles/Namur","5561"
"BE3","03000","Waals Gewest","BE35","90000","Namen",,"91000","Dinant","91072","Houyet","Custinne","5562"
"BE3","03000","Waals Gewest","BE35","90000","Namen",,"91000","Dinant","91072","Houyet","Hour","5563"
"BE3","03000","Waals Gewest","BE35","90000","Namen",,"91000","Dinant","91072","Houyet","Wanlin","5564"
"BE3","03000","Waals Gewest","BE35","90000","Namen",,"91000","Dinant","91013","Beauraing","Beauraing","5570"
"BE3","03000","Waals Gewest","BE35","90000","Namen",,"91000","Dinant","91013","Beauraing","Wiesme","5571"
"BE3","03000","Waals Gewest","BE35","90000","Namen",,"91000","Dinant","91013","Beauraing","Focant","5572"
"BE3","03000","Waals Gewest","BE35","90000","Namen",,"91000","Dinant","91013","Beauraing","Martouzin-Neuville","5573"
"BE3","03000","Waals Gewest","BE35","90000","Namen",,"91000","Dinant","91013","Beauraing","Pondrôme","5574"
"BE3","03000","Waals Gewest","BE35","90000","Namen",,"91000","Dinant","91054","Gedinne","Gedinne","5575"
"BE3","03000","Waals Gewest","BE35","90000","Namen",,"91000","Dinant","91013","Beauraing","Froidfontaine","5576"
"BE3","03000","Waals Gewest","BE35","90000","Namen",,"91000","Dinant","91114","Rochefort","Rochefort","5580"
"BE3","03000","Waals Gewest","BE35","90000","Namen",,"91000","Dinant","91030","Ciney","Ciney","5590"
"BE3","03000","Waals Gewest","BE35","90000","Namen",,"93000","Philippeville","93056","Philippeville","Philippeville","5600"
"BE3","03000","Waals Gewest","BE35","90000","Namen",,"93000","Philippeville","93022","Florennes","Florennes","5620"
"BE3","03000","Waals Gewest","BE35","90000","Namen",,"93000","Philippeville","93022","Florennes","Hanzinelle","5621"
"BE3","03000","Waals Gewest","BE35","90000","Namen",,"93000","Philippeville","93010","Cerfontaine","Cerfontaine","5630"
"BE3","03000","Waals Gewest","BE35","90000","Namen",,"92000","Namen","92087","Mettet","Mettet","5640"
"BE3","03000","Waals Gewest","BE35","90000","Namen",,"92000","Namen","92087","Mettet","Furnaux","5641"
"BE3","03000","Waals Gewest","BE35","90000","Namen",,"92000","Namen","92087","Mettet","Ermeton-sur-Biert","5644"
"BE3","03000","Waals Gewest","BE35","90000","Namen",,"92000","Namen","92087","Mettet","Stave","5646"
"BE3","03000","Waals Gewest","BE35","90000","Namen",,"93000","Philippeville","93088","Walcourt","Walcourt","5650"
"BE3","03000","Waals Gewest","BE35","90000","Namen",,"93000","Philippeville","93088","Walcourt","Berzée","5651"
"BE3","03000","Waals Gewest","BE35","90000","Namen",,"93000","Philippeville","93014","Couvin","Couvin","5660"
"BE3","03000","Waals Gewest","BE35","90000","Namen",,"93000","Philippeville","93090","Viroinval","Viroinval","5670"
"BE3","03000","Waals Gewest","BE35","90000","Namen",,"93000","Philippeville","93018","Doische","Doische","5680"
"BE3","03000","Waals Gewest","5","50000","Henegouwen",,"52000","Charleroi","52011","Charleroi","Charleroi","6000"
"BE3","03000","Waals Gewest","5","50000","Henegouwen",,"52000","Charleroi","52011","Charleroi","Marcinelle","6001"
"BE3","03000","Waals Gewest","5","50000","Henegouwen",,"52000","Charleroi","52011","Charleroi","Couillet","6010"
"BE3","03000","Waals Gewest","5","50000","Henegouwen",,"52000","Charleroi","52011","Charleroi","Dampremy","6020"
"BE3","03000","Waals Gewest","5","50000","Henegouwen",,"52000","Charleroi","52011","Charleroi","Goutroux","6030"
"BE3","03000","Waals Gewest","5","50000","Henegouwen",,"52000","Charleroi","52011","Charleroi","Monceau-sur-Sambre","6031"
"BE3","03000","Waals Gewest","5","50000","Henegouwen",,"52000","Charleroi","52011","Charleroi","Mont-sur-Marchienne","6032"
"BE3","03000","Waals Gewest","5","50000","Henegouwen",,"52000","Charleroi","52011","Charleroi","Jumet","6040"
"BE3","03000","Waals Gewest","5","50000","Henegouwen",,"52000","Charleroi","52011","Charleroi","Gosselies","6041"
"BE3","03000","Waals Gewest","5","50000","Henegouwen",,"52000","Charleroi","52011","Charleroi","Lodelinsart","6042"
"BE3","03000","Waals Gewest","5","50000","Henegouwen",,"52000","Charleroi","52011","Charleroi","Ransart","6043"
"BE3","03000","Waals Gewest","5","50000","Henegouwen",,"52000","Charleroi","52011","Charleroi","Roux","6044"
"BE3","03000","Waals Gewest","5","50000","Henegouwen",,"52000","Charleroi","52011","Charleroi","Gilly","6060"
"BE3","03000","Waals Gewest","5","50000","Henegouwen",,"52000","Charleroi","52011","Charleroi","Montignies-sur-Sambre","6061"
"BE3","03000","Waals Gewest","5","50000","Henegouwen",,"52000","Charleroi","52048","Montigny-le-Tilleul","Montigny-le-Tilleul","6110"
"BE3","03000","Waals Gewest","5","50000","Henegouwen",,"52000","Charleroi","52048","Montigny-le-Tilleul","Landelies","6111"
"BE3","03000","Waals Gewest","5","50000","Henegouwen",,"56000","Thuin","56086","Ham-sur-Heure-Nalinnes","Ham-sur-Heure-Nalinnes","6120"
"BE3","03000","Waals Gewest","5","50000","Henegouwen",,"52000","Charleroi","52022","Fontaine-l'Evêque","Fontaine-l'Evêque","6140"
"BE3","03000","Waals Gewest","5","50000","Henegouwen",,"52000","Charleroi","52022","Fontaine-l'Evêque","Forchies-la-Marche","6141"
"BE3","03000","Waals Gewest","5","50000","Henegouwen",,"52000","Charleroi","52022","Fontaine-l'Evêque","Leernes","6142"
"BE3","03000","Waals Gewest","5","50000","Henegouwen",,"56000","Thuin","56001","Anderlues","Anderlues","6150"
"BE3","03000","Waals Gewest","5","50000","Henegouwen",,"52000","Charleroi","52015","Courcelles","Courcelles","6180"
"BE3","03000","Waals Gewest","5","50000","Henegouwen",,"52000","Charleroi","52015","Courcelles","Gouy-lez-Piéton","6181"
"BE3","03000","Waals Gewest","5","50000","Henegouwen",,"52000","Charleroi","52015","Courcelles","Souvret","6182"
"BE3","03000","Waals Gewest","5","50000","Henegouwen",,"52000","Charleroi","52015","Courcelles","Trazegnies","6183"
"BE3","03000","Waals Gewest","5","50000","Henegouwen",,"52000","Charleroi","52012","Châtelet","Châtelet","6200"
"BE3","03000","Waals Gewest","5","50000","Henegouwen",,"52000","Charleroi","52075","Les Bons Villers","Les Bons Villers","6210"
"BE3","03000","Waals Gewest","5","50000","Henegouwen",,"52000","Charleroi","52075","Les Bons Villers","Mellet","6211"
"BE3","03000","Waals Gewest","5","50000","Henegouwen",,"52000","Charleroi","52021","Fleurus","Fleurus","6220"
"BE3","03000","Waals Gewest","5","50000","Henegouwen",,"52000","Charleroi","52021","Fleurus","Saint-Amand","6221"
"BE3","03000","Waals Gewest","5","50000","Henegouwen",,"52000","Charleroi","52021","Fleurus","Brye","6222"
"BE3","03000","Waals Gewest","5","50000","Henegouwen",,"52000","Charleroi","52021","Fleurus","Wagnelée","6223"
"BE3","03000","Waals Gewest","5","50000","Henegouwen",,"52000","Charleroi","52021","Fleurus","Wanfercée-Baulet","6224"
"BE3","03000","Waals Gewest","5","50000","Henegouwen",,"52000","Charleroi","52055","Pont-à-Celles","Pont-à-Celles","6230"
"BE3","03000","Waals Gewest","5","50000","Henegouwen",,"52000","Charleroi","52055","Pont-à-Celles","Liberchies","6238"
"BE3","03000","Waals Gewest","5","50000","Henegouwen",,"52000","Charleroi","52018","Farciennes","Farciennes","6240"
"BE3","03000","Waals Gewest","5","50000","Henegouwen",,"52000","Charleroi","52074","Aiseau-Presles","Aiseau-Presles","6250"
"BE3","03000","Waals Gewest","5","50000","Henegouwen",,"52000","Charleroi","52025","Gerpinnes","Gerpinnes","6280"
"BE3","03000","Waals Gewest","5","50000","Henegouwen",,"56000","Thuin","56029","Froidchapelle","Boussu-lez-Walcourt","6440"
"BE3","03000","Waals Gewest","5","50000","Henegouwen",,"56000","Thuin","56029","Froidchapelle","Erpion","6441"
"BE3","03000","Waals Gewest","5","50000","Henegouwen",,"56000","Thuin","56016","Chimay","Chimay","6460"
"BE3","03000","Waals Gewest","5","50000","Henegouwen",,"56000","Thuin","56016","Chimay","Virelles","6461"
"BE3","03000","Waals Gewest","5","50000","Henegouwen",,"56000","Thuin","56016","Chimay","Vaulx-lez-Chimay","6462"
"BE3","03000","Waals Gewest","5","50000","Henegouwen",,"56000","Thuin","56016","Chimay","Lompret","6463"
"BE3","03000","Waals Gewest","5","50000","Henegouwen",,"56000","Thuin","56016","Chimay","Baileux","6464"
"BE3","03000","Waals Gewest","5","50000","Henegouwen",,"56000","Thuin","56088","Sivry-Rance","Sivry-Rance","6470"
"BE3","03000","Waals Gewest","5","50000","Henegouwen",,"56000","Thuin","56005","Beaumont","Beaumont","6500"
"BE3","03000","Waals Gewest","5","50000","Henegouwen",,"56000","Thuin","56005","Beaumont","Strée Ht","6511"
"BE3","03000","Waals Gewest","5","50000","Henegouwen",,"56000","Thuin","56078","Thuin","Thuin","6530"
"BE3","03000","Waals Gewest","5","50000","Henegouwen",,"56000","Thuin","56078","Thuin","Biesme-sous-Thuin","6531"
"BE3","03000","Waals Gewest","5","50000","Henegouwen",,"56000","Thuin","56078","Thuin","Ragnies","6532"
"BE3","03000","Waals Gewest","5","50000","Henegouwen",,"56000","Thuin","56078","Thuin","Biercée","6533"
"BE3","03000","Waals Gewest","5","50000","Henegouwen",,"56000","Thuin","56078","Thuin","Gozée","6534"
"BE3","03000","Waals Gewest","5","50000","Henegouwen",,"56000","Thuin","56078","Thuin","Donstiennes","6536"
"BE3","03000","Waals Gewest","5","50000","Henegouwen",,"56000","Thuin","56044","Lobbes","Lobbes","6540"
"BE3","03000","Waals Gewest","5","50000","Henegouwen",,"56000","Thuin","56044","Lobbes","Sars-la-Buissière","6542"
"BE3","03000","Waals Gewest","5","50000","Henegouwen",,"56000","Thuin","56044","Lobbes","Bienne-lez-Happart","6543"
"BE3","03000","Waals Gewest","5","50000","Henegouwen",,"56000","Thuin","56022","Erquelinnes","Erquelinnes","6560"
"BE3","03000","Waals Gewest","5","50000","Henegouwen",,"56000","Thuin","56049","Merbes-le-Château","Merbes-le-Château","6567"
"BE3","03000","Waals Gewest","5","50000","Henegouwen",,"56000","Thuin","56051","Momignies","Momignies","6590"
"BE3","03000","Waals Gewest","5","50000","Henegouwen",,"56000","Thuin","56051","Momignies","Macon","6591"
"BE3","03000","Waals Gewest","5","50000","Henegouwen",,"56000","Thuin","56051","Momignies","Monceau-Imbrechies","6592"
"BE3","03000","Waals Gewest","5","50000","Henegouwen",,"56000","Thuin","56051","Momignies","Macquenoise","6593"
"BE3","03000","Waals Gewest","5","50000","Henegouwen",,"56000","Thuin","56051","Momignies","Beauwelz","6594"
"BE3","03000","Waals Gewest","5","50000","Henegouwen",,"56000","Thuin","56051","Momignies","Forges-Philippe","6596"
"BE3","03000","Waals Gewest","8","80000","Luxemburg",,"82000","Bastenaken","82003","Bastogne","Bastogne","6600"
"BE3","03000","Waals Gewest","8","80000","Luxemburg",,"81000","Aarlen","81013","Martelange","Martelange","6630"
"BE3","03000","Waals Gewest","8","80000","Luxemburg",,"82000","Bastenaken","82009","Fauvillers","Fauvillers","6637"
"BE3","03000","Waals Gewest","8","80000","Luxemburg",,"82000","Bastenaken","82036","Vaux-sur-Sûre","Vaux-sur-Sûre","6640"
"BE3","03000","Waals Gewest","8","80000","Luxemburg",,"82000","Bastenaken","82036","Vaux-sur-Sûre","Juseret","6642"
"BE3","03000","Waals Gewest","8","80000","Luxemburg",,"82000","Bastenaken","82014","Houffalize","Houffalize","6660"
"BE3","03000","Waals Gewest","8","80000","Luxemburg",,"82000","Bastenaken","82014","Houffalize","Mont/Luxembourg","6661"
"BE3","03000","Waals Gewest","8","80000","Luxemburg",,"82000","Bastenaken","82014","Houffalize","Tavigny","6662"
"BE3","03000","Waals Gewest","8","80000","Luxemburg",,"82000","Bastenaken","82014","Houffalize","Mabompré","6663"
"BE3","03000","Waals Gewest","8","80000","Luxemburg",,"82000","Bastenaken","82014","Houffalize","Wibrin","6666"
"BE3","03000","Waals Gewest","8","80000","Luxemburg",,"82000","Bastenaken","82037","Gouvy","Gouvy","6670"
"BE3","03000","Waals Gewest","8","80000","Luxemburg",,"82000","Bastenaken","82037","Gouvy","Bovigny","6671"
"BE3","03000","Waals Gewest","8","80000","Luxemburg",,"82000","Bastenaken","82037","Gouvy","Beho","6672"
"BE3","03000","Waals Gewest","8","80000","Luxemburg",,"82000","Bastenaken","82037","Gouvy","Cherain","6673"
"BE3","03000","Waals Gewest","8","80000","Luxemburg",,"82000","Bastenaken","82037","Gouvy","Montleban","6674"
"BE3","03000","Waals Gewest","8","80000","Luxemburg",,"82000","Bastenaken","82038","Sainte-Ode","Sainte-Ode","6680"
"BE3","03000","Waals Gewest","8","80000","Luxemburg",,"82000","Bastenaken","82038","Sainte-Ode","Lavacherie","6681"
"BE3","03000","Waals Gewest","8","80000","Luxemburg",,"82000","Bastenaken","82005","Bertogne","Flamierge","6686"
"BE3","03000","Waals Gewest","8","80000","Luxemburg",,"82000","Bastenaken","82005","Bertogne","Bertogne","6687"
"BE3","03000","Waals Gewest","8","80000","Luxemburg",,"82000","Bastenaken","82005","Bertogne","Longchamps/Luxembourg","6688"
"BE3","03000","Waals Gewest","8","80000","Luxemburg",,"82000","Bastenaken","82032","Vielsalm","Vielsalm","6690"
"BE3","03000","Waals Gewest","8","80000","Luxemburg",,"82000","Bastenaken","82032","Vielsalm","Petit-Thier","6692"
"BE3","03000","Waals Gewest","8","80000","Luxemburg",,"82000","Bastenaken","82032","Vielsalm","Grand-Halleux","6698"
"BE3","03000","Waals Gewest","8","80000","Luxemburg",,"81000","Aarlen","81001","Arlon","Arlon","6700"
"BE3","03000","Waals Gewest","8","80000","Luxemburg",,"81000","Aarlen","81001","Arlon","Guirsch","6704"
"BE3","03000","Waals Gewest","8","80000","Luxemburg",,"81000","Aarlen","81001","Arlon","Autelbas","6706"
"BE3","03000","Waals Gewest","8","80000","Luxemburg",,"81000","Aarlen","81003","Attert","Attert","6717"
"BE3","03000","Waals Gewest","8","80000","Luxemburg",,"85000","Virton","85046","Habay","Habay","6720"
"BE3","03000","Waals Gewest","8","80000","Luxemburg",,"85000","Virton","85046","Habay","Anlier","6721"
"BE3","03000","Waals Gewest","8","80000","Luxemburg",,"85000","Virton","85046","Habay","Habay-la-Vieille","6723"
"BE3","03000","Waals Gewest","8","80000","Luxemburg",,"85000","Virton","85046","Habay","Houdemont","6724"
"BE3","03000","Waals Gewest","8","80000","Luxemburg",,"85000","Virton","85039","Tintigny","Tintigny","6730"
"BE3","03000","Waals Gewest","8","80000","Luxemburg",,"85000","Virton","85009","Etalle","Etalle","6740"
"BE3","03000","Waals Gewest","8","80000","Luxemburg",,"85000","Virton","85009","Etalle","Vance","6741"
"BE3","03000","Waals Gewest","8","80000","Luxemburg",,"85000","Virton","85009","Etalle","Chantemelle","6742"
"BE3","03000","Waals Gewest","8","80000","Luxemburg",,"85000","Virton","85009","Etalle","Buzenol","6743"
"BE3","03000","Waals Gewest","8","80000","Luxemburg",,"85000","Virton","85034","Saint-Léger (Lux.)","Saint-Léger","6747"
"BE3","03000","Waals Gewest","8","80000","Luxemburg",,"85000","Virton","85026","Musson","Musson","6750"
"BE3","03000","Waals Gewest","8","80000","Luxemburg",,"85000","Virton","85045","Virton","Virton","6760"
"BE3","03000","Waals Gewest","8","80000","Luxemburg",,"85000","Virton","85045","Virton","Latour","6761"
"BE3","03000","Waals Gewest","8","80000","Luxemburg",,"85000","Virton","85045","Virton","Saint-Mard","6762"
"BE3","03000","Waals Gewest","8","80000","Luxemburg",,"85000","Virton","85047","Rouvroy","Rouvroy","6767"
"BE3","03000","Waals Gewest","8","80000","Luxemburg",,"85000","Virton","85024","Meix-devant-Virton","Meix-devant-Virton","6769"
"BE3","03000","Waals Gewest","8","80000","Luxemburg",,"81000","Aarlen","81015","Messancy","Messancy","6780"
"BE3","03000","Waals Gewest","8","80000","Luxemburg",,"81000","Aarlen","81015","Messancy","Sélange","6781"
"BE3","03000","Waals Gewest","8","80000","Luxemburg",,"81000","Aarlen","81015","Messancy","Habergy","6782"
"BE3","03000","Waals Gewest","8","80000","Luxemburg",,"81000","Aarlen","81004","Aubange","Aubange","6790"
"BE3","03000","Waals Gewest","8","80000","Luxemburg",,"81000","Aarlen","81004","Aubange","Athus","6791"
"BE3","03000","Waals Gewest","8","80000","Luxemburg",,"81000","Aarlen","81004","Aubange","Halanzy","6792"
"BE3","03000","Waals Gewest","8","80000","Luxemburg",,"84000","Neufchâteau","84077","Libramont-Chevigny","Libramont-Chevigny","6800"
"BE3","03000","Waals Gewest","8","80000","Luxemburg",,"85000","Virton","85007","Chiny","Chiny","6810"
"BE3","03000","Waals Gewest","8","80000","Luxemburg",,"85000","Virton","85007","Chiny","Les Bulles","6811"
"BE3","03000","Waals Gewest","8","80000","Luxemburg",,"85000","Virton","85007","Chiny","Suxy","6812"
"BE3","03000","Waals Gewest","8","80000","Luxemburg",,"85000","Virton","85007","Chiny","Termes","6813"
"BE3","03000","Waals Gewest","8","80000","Luxemburg",,"85000","Virton","85011","Florenville","Florenville","6820"
"BE3","03000","Waals Gewest","8","80000","Luxemburg",,"85000","Virton","85011","Florenville","Lacuisine","6821"
"BE3","03000","Waals Gewest","8","80000","Luxemburg",,"85000","Virton","85011","Florenville","Villers-devant-Orval","6823"
"BE3","03000","Waals Gewest","8","80000","Luxemburg",,"85000","Virton","85011","Florenville","Chassepierre","6824"
"BE3","03000","Waals Gewest","8","80000","Luxemburg",,"84000","Neufchâteau","84010","Bouillon","Bouillon","6830"
"BE3","03000","Waals Gewest","8","80000","Luxemburg",,"84000","Neufchâteau","84010","Bouillon","Noirefontaine","6831"
"BE3","03000","Waals Gewest","8","80000","Luxemburg",,"84000","Neufchâteau","84010","Bouillon","Sensenruth","6832"
"BE3","03000","Waals Gewest","8","80000","Luxemburg",,"84000","Neufchâteau","84010","Bouillon","Ucimont","6833"
"BE3","03000","Waals Gewest","8","80000","Luxemburg",,"84000","Neufchâteau","84010","Bouillon","Bellevaux","6834"
"BE3","03000","Waals Gewest","8","80000","Luxemburg",,"84000","Neufchâteau","84010","Bouillon","Dohan","6836"
"BE3","03000","Waals Gewest","8","80000","Luxemburg",,"84000","Neufchâteau","84010","Bouillon","Corbion","6838"
"BE3","03000","Waals Gewest","8","80000","Luxemburg",,"84000","Neufchâteau","84043","Neufchâteau","Neufchâteau","6840"
"BE3","03000","Waals Gewest","8","80000","Luxemburg",,"84000","Neufchâteau","84050","Paliseul","Paliseul","6850"
"BE3","03000","Waals Gewest","8","80000","Luxemburg",,"84000","Neufchâteau","84050","Paliseul","Nollevaux","6851"
"BE3","03000","Waals Gewest","8","80000","Luxemburg",,"84000","Neufchâteau","84050","Paliseul","Maissin","6852"
"BE3","03000","Waals Gewest","8","80000","Luxemburg",,"84000","Neufchâteau","84050","Paliseul","Framont","6853"
"BE3","03000","Waals Gewest","8","80000","Luxemburg",,"84000","Neufchâteau","84050","Paliseul","Fays-les-Veneurs","6856"
"BE3","03000","Waals Gewest","8","80000","Luxemburg",,"84000","Neufchâteau","84033","Léglise","Léglise","6860"
"BE3","03000","Waals Gewest","8","80000","Luxemburg",,"84000","Neufchâteau","84059","Saint-Hubert","Saint-Hubert","6870"
"BE3","03000","Waals Gewest","8","80000","Luxemburg",,"84000","Neufchâteau","84009","Bertrix","Bertrix","6880"
"BE3","03000","Waals Gewest","8","80000","Luxemburg",,"84000","Neufchâteau","84029","Herbeumont","Herbeumont","6887"
"BE3","03000","Waals Gewest","8","80000","Luxemburg",,"84000","Neufchâteau","84035","Libin","Libin","6890"
"BE3","03000","Waals Gewest","8","80000","Luxemburg",,"83000","Marche-en-Famenne","83034","Marche-en-Famenne","Marche-en-Famenne","6900"
"BE3","03000","Waals Gewest","8","80000","Luxemburg",,"84000","Neufchâteau","84075","Wellin","Wellin","6920"
"BE3","03000","Waals Gewest","8","80000","Luxemburg",,"84000","Neufchâteau","84075","Wellin","Chanly","6921"
"BE3","03000","Waals Gewest","8","80000","Luxemburg",,"84000","Neufchâteau","84075","Wellin","Halma","6922"
"BE3","03000","Waals Gewest","8","80000","Luxemburg",,"84000","Neufchâteau","84075","Wellin","Lomprez","6924"
"BE3","03000","Waals Gewest","8","80000","Luxemburg",,"84000","Neufchâteau","84068","Tellin","Tellin","6927"
"BE3","03000","Waals Gewest","8","80000","Luxemburg",,"84000","Neufchâteau","84016","Daverdisse","Daverdisse","6929"
"BE3","03000","Waals Gewest","8","80000","Luxemburg",,"83000","Marche-en-Famenne","83012","Durbuy","Durbuy","6940"
"BE3","03000","Waals Gewest","8","80000","Luxemburg",,"83000","Marche-en-Famenne","83012","Durbuy","Bende","6941"
"BE3","03000","Waals Gewest","8","80000","Luxemburg",,"83000","Marche-en-Famenne","83040","Nassogne","Nassogne","6950"
"BE3","03000","Waals Gewest","8","80000","Luxemburg",,"83000","Marche-en-Famenne","83040","Nassogne","Bande","6951"
"BE3","03000","Waals Gewest","8","80000","Luxemburg",,"83000","Marche-en-Famenne","83040","Nassogne","Grune","6952"
"BE3","03000","Waals Gewest","8","80000","Luxemburg",,"83000","Marche-en-Famenne","83040","Nassogne","Ambly","6953"
"BE3","03000","Waals Gewest","8","80000","Luxemburg",,"83000","Marche-en-Famenne","83055","Manhay","Manhay","6960"
"BE3","03000","Waals Gewest","8","80000","Luxemburg",,"83000","Marche-en-Famenne","83049","Tenneville","Tenneville","6970"
"BE3","03000","Waals Gewest","8","80000","Luxemburg",,"83000","Marche-en-Famenne","83049","Tenneville","Champlon","6971"
"BE3","03000","Waals Gewest","8","80000","Luxemburg",,"83000","Marche-en-Famenne","83049","Tenneville","Erneuville","6972"
"BE3","03000","Waals Gewest","8","80000","Luxemburg",,"83000","Marche-en-Famenne","83031","La Roche-en-Ardenne","La Roche-en-Ardenne","6980"
"BE3","03000","Waals Gewest","8","80000","Luxemburg",,"83000","Marche-en-Famenne","83031","La Roche-en-Ardenne","Samrée","6982"
"BE3","03000","Waals Gewest","8","80000","Luxemburg",,"83000","Marche-en-Famenne","83031","La Roche-en-Ardenne","Ortho","6983"
"BE3","03000","Waals Gewest","8","80000","Luxemburg",,"83000","Marche-en-Famenne","83031","La Roche-en-Ardenne","Hives","6984"
"BE3","03000","Waals Gewest","8","80000","Luxemburg",,"83000","Marche-en-Famenne","83031","La Roche-en-Ardenne","Halleux","6986"
"BE3","03000","Waals Gewest","8","80000","Luxemburg",,"83000","Marche-en-Famenne","83044","Rendeux","Rendeux","6987"
"BE3","03000","Waals Gewest","8","80000","Luxemburg",,"83000","Marche-en-Famenne","83028","Hotton","Hotton","6990"
"BE3","03000","Waals Gewest","8","80000","Luxemburg",,"83000","Marche-en-Famenne","83013","Erezée","Erezée","6997"
"BE3","03000","Waals Gewest","5","50000","Henegouwen",,"53000","Bergen","53053","Mons","Mons","7000"
"BE3","03000","Waals Gewest","5","50000","Henegouwen",,"53000","Bergen","53053","Mons","Ghlin","7011"
"BE3","03000","Waals Gewest","5","50000","Henegouwen",,"53000","Bergen","53053","Mons","Flénu","7012"
"BE3","03000","Waals Gewest","5","50000","Henegouwen",,"53000","Bergen","53053","Mons","Maisières","7020"
"BE3","03000","Waals Gewest","5","50000","Henegouwen",,"53000","Bergen","53053","Mons","Havré","7021"
"BE3","03000","Waals Gewest","5","50000","Henegouwen",,"53000","Bergen","53053","Mons","Harmignies","7022"
"BE3","03000","Waals Gewest","5","50000","Henegouwen",,"53000","Bergen","53053","Mons","Ciply","7024"
"BE3","03000","Waals Gewest","5","50000","Henegouwen",,"53000","Bergen","53053","Mons","Saint-Symphorien","7030"
"BE3","03000","Waals Gewest","5","50000","Henegouwen",,"53000","Bergen","53053","Mons","Villers-Saint-Ghislain","7031"
"BE3","03000","Waals Gewest","5","50000","Henegouwen",,"53000","Bergen","53053","Mons","Spiennes","7032"
"BE3","03000","Waals Gewest","5","50000","Henegouwen",,"53000","Bergen","53053","Mons","Cuesmes","7033"
"BE3","03000","Waals Gewest","5","50000","Henegouwen",,"53000","Bergen","53053","Mons","Obourg","7034"
"BE3","03000","Waals Gewest","5","50000","Henegouwen",,"53000","Bergen","53084","Quévy","Quévy","7040"
"BE3","03000","Waals Gewest","5","50000","Henegouwen",,"53000","Bergen","53084","Quévy","Givry","7041"
"BE3","03000","Waals Gewest","5","50000","Henegouwen",,"53000","Bergen","53044","Jurbise","Jurbise","7050"
"BE3","03000","Waals Gewest","5","50000","Henegouwen",,"55000","Zinnik","55040","Soignies","Soignies","7060"
"BE3","03000","Waals Gewest","5","50000","Henegouwen",,"55000","Zinnik","55040","Soignies","Casteau Soignies","7061"
"BE3","03000","Waals Gewest","5","50000","Henegouwen",,"55000","Zinnik","55040","Soignies","Naast","7062"
"BE3","03000","Waals Gewest","5","50000","Henegouwen",,"55000","Zinnik","55040","Soignies","Chaussée-Notre-Dame-Louvi","7063"
"BE3","03000","Waals Gewest","5","50000","Henegouwen",,"55000","Zinnik","55035","Le Roeulx","Le Roeulx","7070"
"BE3","03000","Waals Gewest","5","50000","Henegouwen",,"53000","Bergen","53028","Frameries","Frameries","7080"
"BE3","03000","Waals Gewest","5","50000","Henegouwen",,"55000","Zinnik","55004","Braine-le-Comte","Braine-le-Comte","7090"
"BE3","03000","Waals Gewest","5","50000","Henegouwen",,"55000","Zinnik","55022","La Louvière","La Louvière","7100"
"BE3","03000","Waals Gewest","5","50000","Henegouwen",,"55000","Zinnik","55022","La Louvière","Boussoit","7110"
"BE3","03000","Waals Gewest","5","50000","Henegouwen",,"56000","Thuin","56085","Estinnes","Estinnes","7120"
"BE3","03000","Waals Gewest","5","50000","Henegouwen",,"56000","Thuin","56011","Binche","Binche","7130"
"BE3","03000","Waals Gewest","5","50000","Henegouwen",,"56000","Thuin","56011","Binche","Waudrez","7131"
"BE3","03000","Waals Gewest","5","50000","Henegouwen",,"56000","Thuin","56011","Binche","Buvrinnes","7133"
"BE3","03000","Waals Gewest","5","50000","Henegouwen",,"56000","Thuin","56011","Binche","Epinois","7134"
"BE3","03000","Waals Gewest","5","50000","Henegouwen",,"56000","Thuin","56087","Morlanwelz","Morlanwelz","7140"
"BE3","03000","Waals Gewest","5","50000","Henegouwen",,"56000","Thuin","56087","Morlanwelz","Carnières","7141"
"BE3","03000","Waals Gewest","5","50000","Henegouwen",,"52000","Charleroi","52010","Chapelle-lez-Herlaimon","Chapelle-lez-Herlaimont","7160"
"BE3","03000","Waals Gewest","5","50000","Henegouwen",,"52000","Charleroi","52043","Manage","Manage","7170"
"BE3","03000","Waals Gewest","5","50000","Henegouwen",,"52000","Charleroi","52063","Seneffe","Seneffe","7180"
"BE3","03000","Waals Gewest","5","50000","Henegouwen",,"52000","Charleroi","52063","Seneffe","Arquennes","7181"
"BE3","03000","Waals Gewest","5","50000","Henegouwen",,"55000","Zinnik","55050","Ecaussinnes","Ecaussinnes","7190"
"BE3","03000","Waals Gewest","5","50000","Henegouwen",,"55000","Zinnik","55050","Ecaussinnes","Ecaussinnes-Lalaing","7191"
"BE3","03000","Waals Gewest","5","50000","Henegouwen",,"53000","Bergen","53014","Boussu","Boussu","7300"
"BE3","03000","Waals Gewest","5","50000","Henegouwen",,"53000","Bergen","53014","Boussu","Hornu","7301"
"BE3","03000","Waals Gewest","5","50000","Henegouwen",,"51000","Aat","51009","Bernissart","Bernissart","7320"
"BE3","03000","Waals Gewest","5","50000","Henegouwen",,"51000","Aat","51009","Bernissart","Blaton","7321"
"BE3","03000","Waals Gewest","5","50000","Henegouwen",,"51000","Aat","51009","Bernissart","Pommeroeul","7322"
"BE3","03000","Waals Gewest","5","50000","Henegouwen",,"53000","Bergen","53070","Saint-Ghislain","Saint-Ghislain","7330"
"BE3","03000","Waals Gewest","5","50000","Henegouwen",,"53000","Bergen","53070","Saint-Ghislain","Baudour","7331"
"BE3","03000","Waals Gewest","5","50000","Henegouwen",,"53000","Bergen","53070","Saint-Ghislain","Neufmaison","7332"
"BE3","03000","Waals Gewest","5","50000","Henegouwen",,"53000","Bergen","53070","Saint-Ghislain","Tertre","7333"
"BE3","03000","Waals Gewest","5","50000","Henegouwen",,"53000","Bergen","53070","Saint-Ghislain","Hautrage","7334"
"BE3","03000","Waals Gewest","5","50000","Henegouwen",,"53000","Bergen","53082","Colfontaine","Colfontaine","7340"
"BE3","03000","Waals Gewest","5","50000","Henegouwen",,"53000","Bergen","53039","Hensies","Hensies","7350"
"BE3","03000","Waals Gewest","5","50000","Henegouwen",,"53000","Bergen","53020","Dour","Dour","7370"
"BE3","03000","Waals Gewest","5","50000","Henegouwen",,"53000","Bergen","53068","Quiévrain","Quiévrain","7380"
"BE3","03000","Waals Gewest","5","50000","Henegouwen",,"53000","Bergen","53068","Quiévrain","Audregnies","7382"
"BE3","03000","Waals Gewest","5","50000","Henegouwen",,"53000","Bergen","53083","Honnelles","Honnelles","7387"
"BE3","03000","Waals Gewest","5","50000","Henegouwen",,"53000","Bergen","53065","Quaregnon","Quaregnon","7390"
"BE3","03000","Waals Gewest","5","50000","Henegouwen",,"57000","Doornik","57081","Tournai","Tournai","7500"
"BE3","03000","Waals Gewest","5","50000","Henegouwen",,"57000","Doornik","57081","Tournai","Orcq","7501"
"BE3","03000","Waals Gewest","5","50000","Henegouwen",,"57000","Doornik","57081","Tournai","Esplechin","7502"
"BE3","03000","Waals Gewest","5","50000","Henegouwen",,"57000","Doornik","57081","Tournai","Froyennes","7503"
"BE3","03000","Waals Gewest","5","50000","Henegouwen",,"57000","Doornik","57081","Tournai","Froidmont","7504"
"BE3","03000","Waals Gewest","5","50000","Henegouwen",,"57000","Doornik","57081","Tournai","Willemeau","7506"
"BE3","03000","Waals Gewest","5","50000","Henegouwen",,"57000","Doornik","57081","Tournai","Ramegnies-Chin","7520"
"BE3","03000","Waals Gewest","5","50000","Henegouwen",,"57000","Doornik","57081","Tournai","Chercq","7521"
"BE3","03000","Waals Gewest","5","50000","Henegouwen",,"57000","Doornik","57081","Tournai","Blandain","7522"
"BE3","03000","Waals Gewest","5","50000","Henegouwen",,"57000","Doornik","57081","Tournai","Gaurain-Ramecroix","7530"
"BE3","03000","Waals Gewest","5","50000","Henegouwen",,"57000","Doornik","57081","Tournai","Havinnes","7531"
"BE3","03000","Waals Gewest","5","50000","Henegouwen",,"57000","Doornik","57081","Tournai","Beclers","7532"
"BE3","03000","Waals Gewest","5","50000","Henegouwen",,"57000","Doornik","57081","Tournai","Thimougies","7533"
"BE3","03000","Waals Gewest","5","50000","Henegouwen",,"57000","Doornik","57081","Tournai","Barry","7534"
"BE3","03000","Waals Gewest","5","50000","Henegouwen",,"57000","Doornik","57081","Tournai","Vaulx","7536"
"BE3","03000","Waals Gewest","5","50000","Henegouwen",,"57000","Doornik","57081","Tournai","Vezon","7538"
"BE3","03000","Waals Gewest","5","50000","Henegouwen",,"57000","Doornik","57081","Tournai","Kain","7540"
"BE3","03000","Waals Gewest","5","50000","Henegouwen",,"57000","Doornik","57081","Tournai","Mont-Saint-Aubert","7542"
"BE3","03000","Waals Gewest","5","50000","Henegouwen",,"57000","Doornik","57081","Tournai","Mourcourt","7543"
"BE3","03000","Waals Gewest","5","50000","Henegouwen",,"57000","Doornik","57081","Tournai","Warchin","7548"
"BE3","03000","Waals Gewest","5","50000","Henegouwen",,"57000","Doornik","57064","Péruwelz","Péruwelz","7600"
"BE3","03000","Waals Gewest","5","50000","Henegouwen",,"57000","Doornik","57064","Péruwelz","Roucourt","7601"
"BE3","03000","Waals Gewest","5","50000","Henegouwen",,"57000","Doornik","57064","Péruwelz","Bury","7602"
"BE3","03000","Waals Gewest","5","50000","Henegouwen",,"57000","Doornik","57064","Péruwelz","Bon-Secours","7603"
"BE3","03000","Waals Gewest","5","50000","Henegouwen",,"57000","Doornik","57064","Péruwelz","Baugnies","7604"
"BE3","03000","Waals Gewest","5","50000","Henegouwen",,"57000","Doornik","57064","Péruwelz","Wiers","7608"
"BE3","03000","Waals Gewest","5","50000","Henegouwen",,"57000","Doornik","57072","Rumes","Rumes","7610"
"BE3","03000","Waals Gewest","5","50000","Henegouwen",,"57000","Doornik","57072","Rumes","La Glanerie","7611"
"BE3","03000","Waals Gewest","5","50000","Henegouwen",,"57000","Doornik","57072","Rumes","Taintignies","7618"
"BE3","03000","Waals Gewest","5","50000","Henegouwen",,"57000","Doornik","57093","Brunehaut","Brunehaut","7620"
"BE3","03000","Waals Gewest","5","50000","Henegouwen",,"57000","Doornik","57093","Brunehaut","Lesdain","7621"
"BE3","03000","Waals Gewest","5","50000","Henegouwen",,"57000","Doornik","57093","Brunehaut","Laplaigne","7622"
"BE3","03000","Waals Gewest","5","50000","Henegouwen",,"57000","Doornik","57093","Brunehaut","Rongy","7623"
"BE3","03000","Waals Gewest","5","50000","Henegouwen",,"57000","Doornik","57093","Brunehaut","Howardries","7624"
"BE3","03000","Waals Gewest","5","50000","Henegouwen",,"57000","Doornik","57003","Antoing","Antoing","7640"
"BE3","03000","Waals Gewest","5","50000","Henegouwen",,"57000","Doornik","57003","Antoing","Bruyelle","7641"
"BE3","03000","Waals Gewest","5","50000","Henegouwen",,"57000","Doornik","57003","Antoing","Calonne","7642"
"BE3","03000","Waals Gewest","5","50000","Henegouwen",,"57000","Doornik","57003","Antoing","Fontenoy","7643"
"BE3","03000","Waals Gewest","5","50000","Henegouwen",,"54000","Moeskroen","54007","Mouscron","Mouscron","7700"
"BE3","03000","Waals Gewest","5","50000","Henegouwen",,"54000","Moeskroen","54007","Mouscron","Dottignies/Dottenijs","7711"
"BE3","03000","Waals Gewest","5","50000","Henegouwen",,"54000","Moeskroen","54007","Mouscron","Herseaux","7712"
"BE3","03000","Waals Gewest","5","50000","Henegouwen",,"57000","Doornik","57027","Estaimpuis","Estaimpuis","7730"
"BE3","03000","Waals Gewest","5","50000","Henegouwen",,"57000","Doornik","57062","Pecq","Pecq","7740"
"BE3","03000","Waals Gewest","5","50000","Henegouwen",,"57000","Doornik","57062","Pecq","Hérinnes-lez-Pecq","7742"
"BE3","03000","Waals Gewest","5","50000","Henegouwen",,"57000","Doornik","57062","Pecq","Esquelmes","7743"
"BE3","03000","Waals Gewest","5","50000","Henegouwen",,"57000","Doornik","57095","Mont-de-l'Enclus","Mont-de-l'Enclus","7750"
"BE3","03000","Waals Gewest","5","50000","Henegouwen",,"57000","Doornik","57018","Celles (lez-Tournai)","Celles","7760"
"BE3","03000","Waals Gewest","5","50000","Henegouwen",,"54000","Moeskroen","54010","Comines-Warneton","Comines-Warneton/Komen-Waasten","7780"
"BE3","03000","Waals Gewest","5","50000","Henegouwen",,"54000","Moeskroen","54010","Comines-Warneton","Houthem Comines/Komen","7781"
"BE3","03000","Waals Gewest","5","50000","Henegouwen",,"54000","Moeskroen","54010","Comines-Warneton","Ploegsteert","7782"
"BE3","03000","Waals Gewest","5","50000","Henegouwen",,"54000","Moeskroen","54010","Comines-Warneton","Bizet","7783"
"BE3","03000","Waals Gewest","5","50000","Henegouwen",,"54000","Moeskroen","54010","Comines-Warneton","Bas-Warneton/Neerwaasten","7784"
"BE3","03000","Waals Gewest","5","50000","Henegouwen",,"51000","Aat","51004","Ath","Ath","7800"
"BE3","03000","Waals Gewest","5","50000","Henegouwen",,"51000","Aat","51004","Ath","Irchonwelz","7801"
"BE3","03000","Waals Gewest","5","50000","Henegouwen",,"51000","Aat","51004","Ath","Ormeignies","7802"
"BE3","03000","Waals Gewest","5","50000","Henegouwen",,"51000","Aat","51004","Ath","Bouvignies","7803"
"BE3","03000","Waals Gewest","5","50000","Henegouwen",,"51000","Aat","51004","Ath","Ostiches","7804"
"BE3","03000","Waals Gewest","5","50000","Henegouwen",,"51000","Aat","51004","Ath","Maffle","7810"
"BE3","03000","Waals Gewest","5","50000","Henegouwen",,"51000","Aat","51004","Ath","Arbre-Ht","7811"
"BE3","03000","Waals Gewest","5","50000","Henegouwen",,"51000","Aat","51004","Ath","Houtaing","7812"
"BE3","03000","Waals Gewest","5","50000","Henegouwen",,"51000","Aat","51004","Ath","Ghislenghien","7822"
"BE3","03000","Waals Gewest","5","50000","Henegouwen",,"51000","Aat","51004","Ath","Gibecq","7823"
"BE3","03000","Waals Gewest","5","50000","Henegouwen",,"55000","Zinnik","55039","Silly","Silly","7830"
"BE3","03000","Waals Gewest","5","50000","Henegouwen",,"55000","Zinnik","55010","Enghien","Enghien/Edingen","7850"
"BE3","03000","Waals Gewest","5","50000","Henegouwen",,"55000","Zinnik","55023","Lessines","Lessines","7860"
"BE3","03000","Waals Gewest","5","50000","Henegouwen",,"55000","Zinnik","55023","Lessines","Papignies","7861"
"BE3","03000","Waals Gewest","5","50000","Henegouwen",,"55000","Zinnik","55023","Lessines","Ogy","7862"
"BE3","03000","Waals Gewest","5","50000","Henegouwen",,"55000","Zinnik","55023","Lessines","Ghoy","7863"
"BE3","03000","Waals Gewest","5","50000","Henegouwen",,"55000","Zinnik","55023","Lessines","Deux-Acren","7864"
"BE3","03000","Waals Gewest","5","50000","Henegouwen",,"55000","Zinnik","55023","Lessines","Bois-de-Lessines","7866"
"BE3","03000","Waals Gewest","5","50000","Henegouwen",,"53000","Bergen","53046","Lens (Hainaut)","Lens","7870"
"BE3","03000","Waals Gewest","5","50000","Henegouwen",,"51000","Aat","51019","Flobecq","Flobecq/Vloesberg","7880"
"BE3","03000","Waals Gewest","5","50000","Henegouwen",,"51000","Aat","51017","Ellezelles","Ellezelles","7890"
"BE3","03000","Waals Gewest","5","50000","Henegouwen",,"57000","Doornik","57094","Leuze-en-Hainaut","Leuze-en-Hainaut","7900"
"BE3","03000","Waals Gewest","5","50000","Henegouwen",,"57000","Doornik","57094","Leuze-en-Hainaut","Thieulain","7901"
"BE3","03000","Waals Gewest","5","50000","Henegouwen",,"57000","Doornik","57094","Leuze-en-Hainaut","Blicquy","7903"
"BE3","03000","Waals Gewest","5","50000","Henegouwen",,"57000","Doornik","57094","Leuze-en-Hainaut","Pipaix","7904"
"BE3","03000","Waals Gewest","5","50000","Henegouwen",,"57000","Doornik","57094","Leuze-en-Hainaut","Gallaix","7906"
"BE3","03000","Waals Gewest","5","50000","Henegouwen",,"51000","Aat","51065","Frasnes-lez-Anvaing","Anvaing","7910"
"BE3","03000","Waals Gewest","5","50000","Henegouwen",,"51000","Aat","51065","Frasnes-lez-Anvaing","Buissenal","7911"
"BE3","03000","Waals Gewest","5","50000","Henegouwen",,"51000","Aat","51065","Frasnes-lez-Anvaing","Dergneau","7912"
"BE3","03000","Waals Gewest","5","50000","Henegouwen",,"51000","Aat","51012","Brugelette","Brugelette","7940"
"BE3","03000","Waals Gewest","5","50000","Henegouwen",,"51000","Aat","51012","Brugelette","Attre","7941"
"BE3","03000","Waals Gewest","5","50000","Henegouwen",,"51000","Aat","51012","Brugelette","Mévergnies-lez-Lens","7942"
"BE3","03000","Waals Gewest","5","50000","Henegouwen",,"51000","Aat","51012","Brugelette","Gages","7943"
"BE3","03000","Waals Gewest","5","50000","Henegouwen",,"51000","Aat","51014","Chièvres","Chièvres","7950"
"BE3","03000","Waals Gewest","5","50000","Henegouwen",,"51000","Aat","51014","Chièvres","Tongre-Notre-Dame","7951"
"BE3","03000","Waals Gewest","5","50000","Henegouwen",,"51000","Aat","51008","Beloeil","Beloeil","7970"
"BE3","03000","Waals Gewest","5","50000","Henegouwen",,"51000","Aat","51008","Beloeil","Basècles","7971"
"BE3","03000","Waals Gewest","5","50000","Henegouwen",,"51000","Aat","51008","Beloeil","Aubechies","7972"
"BE3","03000","Waals Gewest","5","50000","Henegouwen",,"51000","Aat","51008","Beloeil","Grandglise","7973"
"BE2","02000","Vlaams Gewest","3","30000","West-Vlaanderen",,"31000","Brugge","31005","Brugge","Brugge","8000"
"BE2","02000","Vlaams Gewest","3","30000","West-Vlaanderen",,"31000","Brugge","31022","Oostkamp","Oostkamp","8020"
"BE2","02000","Vlaams Gewest","3","30000","West-Vlaanderen",,"31000","Brugge","31005","Brugge","Sint-Michiels","8200"
"BE2","02000","Vlaams Gewest","3","30000","West-Vlaanderen",,"31000","Brugge","31040","Zedelgem","Zedelgem","8210"
"BE2","02000","Vlaams Gewest","3","30000","West-Vlaanderen",,"31000","Brugge","31040","Zedelgem","Aartrijke","8211"
"BE2","02000","Vlaams Gewest","3","30000","West-Vlaanderen",,"31000","Brugge","31043","Knokke-Heist","Knokke","8300"
"BE2","02000","Vlaams Gewest","3","30000","West-Vlaanderen",,"31000","Brugge","31043","Knokke-Heist","Heist-aan-Zee","8301"
"BE2","02000","Vlaams Gewest","3","30000","West-Vlaanderen",,"31000","Brugge","31005","Brugge","Sint-Kruis","8310"
"BE2","02000","Vlaams Gewest","3","30000","West-Vlaanderen",,"31000","Brugge","31006","Damme","Damme","8340"
"BE2","02000","Vlaams Gewest","3","30000","West-Vlaanderen",,"31000","Brugge","31004","Blankenberge","Blankenberge","8370"
"BE2","02000","Vlaams Gewest","3","30000","West-Vlaanderen",,"31000","Brugge","31042","Zuienkerke","Zuienkerke","8377"
"BE2","02000","Vlaams Gewest","3","30000","West-Vlaanderen",,"31000","Brugge","31005","Brugge","Zeebrugge","8380"
"BE2","02000","Vlaams Gewest","3","30000","West-Vlaanderen",,"35000","Oostende","35013","Oostende","Oostende","8400"
"BE2","02000","Vlaams Gewest","3","30000","West-Vlaanderen",,"35000","Oostende","35029","De Haan","De Haan","8420"
"BE2","02000","Vlaams Gewest","3","30000","West-Vlaanderen",,"35000","Oostende","35029","De Haan","Vlissegem","8421"
"BE2","02000","Vlaams Gewest","3","30000","West-Vlaanderen",,"35000","Oostende","35011","Middelkerke","Middelkerke","8430"
"BE2","02000","Vlaams Gewest","3","30000","West-Vlaanderen",,"35000","Oostende","35011","Middelkerke","Wilskerke","8431"
"BE2","02000","Vlaams Gewest","3","30000","West-Vlaanderen",,"35000","Oostende","35011","Middelkerke","Leffinge","8432"
"BE2","02000","Vlaams Gewest","3","30000","West-Vlaanderen",,"35000","Oostende","35011","Middelkerke","Slijpe","8433"
"BE2","02000","Vlaams Gewest","3","30000","West-Vlaanderen",,"35000","Oostende","35011","Middelkerke","Westende","8434"
"BE2","02000","Vlaams Gewest","3","30000","West-Vlaanderen",,"35000","Oostende","35002","Bredene","Bredene","8450"
"BE2","02000","Vlaams Gewest","3","30000","West-Vlaanderen",,"35000","Oostende","35014","Oudenburg","Oudenburg","8460"
"BE2","02000","Vlaams Gewest","3","30000","West-Vlaanderen",,"35000","Oostende","35005","Gistel","Gistel","8470"
"BE2","02000","Vlaams Gewest","3","30000","West-Vlaanderen",,"35000","Oostende","35006","Ichtegem","Ichtegem","8480"
"BE2","02000","Vlaams Gewest","3","30000","West-Vlaanderen",,"31000","Brugge","31012","Jabbeke","Jabbeke","8490"
"BE2","02000","Vlaams Gewest","3","30000","West-Vlaanderen",,"34000","Kortrijk","34022","Kortrijk","Kortrijk","8500"
"BE2","02000","Vlaams Gewest","3","30000","West-Vlaanderen",,"34000","Kortrijk","34022","Kortrijk","Bissegem","8501"
"BE2","02000","Vlaams Gewest","3","30000","West-Vlaanderen",,"34000","Kortrijk","34022","Kortrijk","Marke","8510"
"BE2","02000","Vlaams Gewest","3","30000","West-Vlaanderen",,"34000","Kortrijk","34022","Kortrijk","Aalbeke","8511"
"BE2","02000","Vlaams Gewest","3","30000","West-Vlaanderen",,"34000","Kortrijk","34023","Kuurne","Kuurne","8520"
"BE2","02000","Vlaams Gewest","3","30000","West-Vlaanderen",,"34000","Kortrijk","34013","Harelbeke","Harelbeke","8530"
"BE2","02000","Vlaams Gewest","3","30000","West-Vlaanderen",,"34000","Kortrijk","34013","Harelbeke","Bavikhove","8531"
"BE2","02000","Vlaams Gewest","3","30000","West-Vlaanderen",,"34000","Kortrijk","34009","Deerlijk","Deerlijk","8540"
"BE2","02000","Vlaams Gewest","3","30000","West-Vlaanderen",,"34000","Kortrijk","34042","Zwevegem","Zwevegem","8550"
"BE2","02000","Vlaams Gewest","3","30000","West-Vlaanderen",,"34000","Kortrijk","34042","Zwevegem","Heestert","8551"
"BE2","02000","Vlaams Gewest","3","30000","West-Vlaanderen",,"34000","Kortrijk","34042","Zwevegem","Moen","8552"
"BE2","02000","Vlaams Gewest","3","30000","West-Vlaanderen",,"34000","Kortrijk","34042","Zwevegem","Otegem","8553"
"BE2","02000","Vlaams Gewest","3","30000","West-Vlaanderen",,"34000","Kortrijk","34042","Zwevegem","Sint-Denijs","8554"
"BE2","02000","Vlaams Gewest","3","30000","West-Vlaanderen",,"34000","Kortrijk","34041","Wevelgem","Wevelgem","8560"
"BE2","02000","Vlaams Gewest","3","30000","West-Vlaanderen",,"34000","Kortrijk","34002","Anzegem","Anzegem","8570"
"BE2","02000","Vlaams Gewest","3","30000","West-Vlaanderen",,"34000","Kortrijk","34002","Anzegem","Kaster","8572"
"BE2","02000","Vlaams Gewest","3","30000","West-Vlaanderen",,"34000","Kortrijk","34002","Anzegem","Tiegem","8573"
"BE2","02000","Vlaams Gewest","3","30000","West-Vlaanderen",,"34000","Kortrijk","34003","Avelgem","Avelgem","8580"
"BE2","02000","Vlaams Gewest","3","30000","West-Vlaanderen",,"34000","Kortrijk","34003","Avelgem","Kerkhove","8581"
"BE2","02000","Vlaams Gewest","3","30000","West-Vlaanderen",,"34000","Kortrijk","34003","Avelgem","Outrijve","8582"
"BE2","02000","Vlaams Gewest","3","30000","West-Vlaanderen",,"34000","Kortrijk","34003","Avelgem","Bossuit","8583"
"BE2","02000","Vlaams Gewest","3","30000","West-Vlaanderen",,"34000","Kortrijk","34043","Spiere-Helkijn","Spiere-Helkijn","8587"
"BE2","02000","Vlaams Gewest","3","30000","West-Vlaanderen",,"32000","Diksmuide","32003","Diksmuide","Diksmuide","8600"
"BE2","02000","Vlaams Gewest","3","30000","West-Vlaanderen",,"32000","Diksmuide","32011","Kortemark","Kortemark","8610"
"BE2","02000","Vlaams Gewest","3","30000","West-Vlaanderen",,"38000","Veurne","38016","Nieuwpoort","Nieuwpoort","8620"
"BE2","02000","Vlaams Gewest","3","30000","West-Vlaanderen",,"38000","Veurne","38025","Veurne","Veurne","8630"
"BE2","02000","Vlaams Gewest","3","30000","West-Vlaanderen",,"33000","Ieper","33041","Vleteren","Vleteren","8640"
"BE2","02000","Vlaams Gewest","3","30000","West-Vlaanderen",,"32000","Diksmuide","32030","Lo-Reninge","Lo-Reninge","8647"
"BE2","02000","Vlaams Gewest","3","30000","West-Vlaanderen",,"32000","Diksmuide","32006","Houthulst","Houthulst","8650"
"BE2","02000","Vlaams Gewest","3","30000","West-Vlaanderen",,"38000","Veurne","38008","De Panne","De Panne","8660"
"BE2","02000","Vlaams Gewest","3","30000","West-Vlaanderen",,"38000","Veurne","38014","Koksijde","Koksijde","8670"
"BE2","02000","Vlaams Gewest","3","30000","West-Vlaanderen",,"32000","Diksmuide","32010","Koekelare","Koekelare","8680"
"BE2","02000","Vlaams Gewest","3","30000","West-Vlaanderen",,"38000","Veurne","38002","Alveringem","Alveringem","8690"
"BE2","02000","Vlaams Gewest","3","30000","West-Vlaanderen",,"38000","Veurne","38002","Alveringem","Stavele","8691"
"BE2","02000","Vlaams Gewest","3","30000","West-Vlaanderen",,"37000","Tielt","37015","Tielt","Tielt","8700"
"BE2","02000","Vlaams Gewest","3","30000","West-Vlaanderen",,"37000","Tielt","37017","Wielsbeke","Wielsbeke","8710"
"BE2","02000","Vlaams Gewest","3","30000","West-Vlaanderen",,"37000","Tielt","37002","Dentergem","Dentergem","8720"
"BE2","02000","Vlaams Gewest","3","30000","West-Vlaanderen",,"31000","Brugge","31003","Beernem","Beernem","8730"
"BE2","02000","Vlaams Gewest","3","30000","West-Vlaanderen",,"37000","Tielt","37011","Pittem","Pittem","8740"
"BE2","02000","Vlaams Gewest","3","30000","West-Vlaanderen",,"37000","Tielt","37018","Wingene","Wingene","8750"
"BE2","02000","Vlaams Gewest","3","30000","West-Vlaanderen",,"37000","Tielt","37012","Ruiselede","Ruiselede","8755"
"BE2","02000","Vlaams Gewest","3","30000","West-Vlaanderen",,"37000","Tielt","37007","Meulebeke","Meulebeke","8760"
"BE2","02000","Vlaams Gewest","3","30000","West-Vlaanderen",,"36000","Roeselare","36007","Ingelmunster","Ingelmunster","8770"
"BE2","02000","Vlaams Gewest","3","30000","West-Vlaanderen",,"37000","Tielt","37010","Oostrozebeke","Oostrozebeke","8780"
"BE2","02000","Vlaams Gewest","3","30000","West-Vlaanderen",,"34000","Kortrijk","34040","Waregem","Waregem","8790"
"BE2","02000","Vlaams Gewest","3","30000","West-Vlaanderen",,"34000","Kortrijk","34040","Waregem","Beveren (Leie)","8791"
"BE2","02000","Vlaams Gewest","3","30000","West-Vlaanderen",,"34000","Kortrijk","34040","Waregem","Desselgem","8792"
"BE2","02000","Vlaams Gewest","3","30000","West-Vlaanderen",,"34000","Kortrijk","34040","Waregem","Sint-Eloois-Vijve","8793"
"BE2","02000","Vlaams Gewest","3","30000","West-Vlaanderen",,"36000","Roeselare","36015","Roeselare","Roeselare","8800"
"BE2","02000","Vlaams Gewest","3","30000","West-Vlaanderen",,"36000","Roeselare","36011","Lichtervelde","Lichtervelde","8810"
"BE2","02000","Vlaams Gewest","3","30000","West-Vlaanderen",,"31000","Brugge","31033","Torhout","Torhout","8820"
"BE2","02000","Vlaams Gewest","3","30000","West-Vlaanderen",,"36000","Roeselare","36006","Hooglede","Hooglede","8830"
"BE2","02000","Vlaams Gewest","3","30000","West-Vlaanderen",,"36000","Roeselare","36019","Staden","Staden","8840"
"BE2","02000","Vlaams Gewest","3","30000","West-Vlaanderen",,"37000","Tielt","37020","Ardooie","Ardooie","8850"
"BE2","02000","Vlaams Gewest","3","30000","West-Vlaanderen",,"37000","Tielt","37020","Ardooie","Koolskamp","8851"
"BE2","02000","Vlaams Gewest","3","30000","West-Vlaanderen",,"34000","Kortrijk","34025","Lendelede","Lendelede","8860"
"BE2","02000","Vlaams Gewest","3","30000","West-Vlaanderen",,"36000","Roeselare","36008","Izegem","Izegem","8870"
"BE2","02000","Vlaams Gewest","3","30000","West-Vlaanderen",,"36000","Roeselare","36010","Ledegem","Ledegem","8880"
"BE2","02000","Vlaams Gewest","3","30000","West-Vlaanderen",,"36000","Roeselare","36012","Moorslede","Moorslede","8890"
"BE2","02000","Vlaams Gewest","3","30000","West-Vlaanderen",,"33000","Ieper","33011","Ieper","Ieper","8900"
"BE2","02000","Vlaams Gewest","3","30000","West-Vlaanderen",,"33000","Ieper","33011","Ieper","Hollebeke","8902"
"BE2","02000","Vlaams Gewest","3","30000","West-Vlaanderen",,"33000","Ieper","33011","Ieper","Boezinge","8904"
"BE2","02000","Vlaams Gewest","3","30000","West-Vlaanderen",,"33000","Ieper","33011","Ieper","Elverdinge","8906"
"BE2","02000","Vlaams Gewest","3","30000","West-Vlaanderen",,"33000","Ieper","33011","Ieper","Vlamertinge","8908"
"BE2","02000","Vlaams Gewest","3","30000","West-Vlaanderen",,"33000","Ieper","33040","Langemark-Poelkapelle","Langemark-Poelkapelle","8920"
"BE2","02000","Vlaams Gewest","3","30000","West-Vlaanderen",,"34000","Kortrijk","34027","Menen","Menen","8930"
"BE2","02000","Vlaams Gewest","3","30000","West-Vlaanderen",,"33000","Ieper","33029","Wervik","Wervik","8940"
"BE2","02000","Vlaams Gewest","3","30000","West-Vlaanderen",,"33000","Ieper","33039","Heuvelland","Nieuwkerke","8950"
"BE2","02000","Vlaams Gewest","3","30000","West-Vlaanderen",,"33000","Ieper","33039","Heuvelland","Dranouter","8951"
"BE2","02000","Vlaams Gewest","3","30000","West-Vlaanderen",,"33000","Ieper","33039","Heuvelland","Wulvergem","8952"
"BE2","02000","Vlaams Gewest","3","30000","West-Vlaanderen",,"33000","Ieper","33039","Heuvelland","Wijtschate","8953"
"BE2","02000","Vlaams Gewest","3","30000","West-Vlaanderen",,"33000","Ieper","33039","Heuvelland","Westouter","8954"
"BE2","02000","Vlaams Gewest","3","30000","West-Vlaanderen",,"33000","Ieper","33039","Heuvelland","Kemmel","8956"
"BE2","02000","Vlaams Gewest","3","30000","West-Vlaanderen",,"33000","Ieper","33016","Mesen","Mesen","8957"
"BE2","02000","Vlaams Gewest","3","30000","West-Vlaanderen",,"33000","Ieper","33039","Heuvelland","Loker","8958"
"BE2","02000","Vlaams Gewest","3","30000","West-Vlaanderen",,"33000","Ieper","33021","Poperinge","Poperinge","8970"
"BE2","02000","Vlaams Gewest","3","30000","West-Vlaanderen",,"33000","Ieper","33021","Poperinge","Krombeke","8972"
"BE2","02000","Vlaams Gewest","3","30000","West-Vlaanderen",,"33000","Ieper","33021","Poperinge","Watou","8978"
"BE2","02000","Vlaams Gewest","3","30000","West-Vlaanderen",,"33000","Ieper","33037","Zonnebeke","Zonnebeke","8980"
"BE2","02000","Vlaams Gewest","4","40000","Oost-Vlaanderen",,"44000","Gent","44021","Gent","Gent","9000"
"BE2","02000","Vlaams Gewest","4","40000","Oost-Vlaanderen",,"44000","Gent","44021","Gent","Mariakerke","9030"
"BE2","02000","Vlaams Gewest","4","40000","Oost-Vlaanderen",,"44000","Gent","44021","Gent","Drongen","9031"
"BE2","02000","Vlaams Gewest","4","40000","Oost-Vlaanderen",,"44000","Gent","44021","Gent","Wondelgem","9032"
"BE2","02000","Vlaams Gewest","4","40000","Oost-Vlaanderen",,"44000","Gent","44021","Gent","Sint-Amandsberg","9040"
"BE2","02000","Vlaams Gewest","4","40000","Oost-Vlaanderen",,"44000","Gent","44021","Gent","Oostakker","9041"
"BE2","02000","Vlaams Gewest","4","40000","Oost-Vlaanderen",,"44000","Gent","44021","Gent","Sint-Kruis-Winkel","9042"
"BE2","02000","Vlaams Gewest","4","40000","Oost-Vlaanderen",,"44000","Gent","44021","Gent","Gentbrugge","9050"
"BE2","02000","Vlaams Gewest","4","40000","Oost-Vlaanderen",,"44000","Gent","44021","Gent","Sint-Denijs-Westrem","9051"
"BE2","02000","Vlaams Gewest","4","40000","Oost-Vlaanderen",,"44000","Gent","44021","Gent","Zwijnaarde","9052"
"BE2","02000","Vlaams Gewest","4","40000","Oost-Vlaanderen",,"43000","Eeklo","43018","Zelzate","Zelzate","9060"
"BE2","02000","Vlaams Gewest","4","40000","Oost-Vlaanderen",,"44000","Gent","44013","Destelbergen","Destelbergen","9070"
"BE2","02000","Vlaams Gewest","4","40000","Oost-Vlaanderen",,"44000","Gent","44034","Lochristi","Lochristi","9080"
"BE2","02000","Vlaams Gewest","4","40000","Oost-Vlaanderen",,"44000","Gent","44040","Melle","Melle","9090"
"BE2","02000","Vlaams Gewest","4","40000","Oost-Vlaanderen",,"46000","Sint-Niklaas","46021","Sint-Niklaas","Sint-Niklaas","9100"
"BE2","02000","Vlaams Gewest","4","40000","Oost-Vlaanderen",,"46000","Sint-Niklaas","46021","Sint-Niklaas","Belsele","9111"
"BE2","02000","Vlaams Gewest","4","40000","Oost-Vlaanderen",,"46000","Sint-Niklaas","46021","Sint-Niklaas","Sinaai-Waas","9112"
"BE2","02000","Vlaams Gewest","4","40000","Oost-Vlaanderen",,"46000","Sint-Niklaas","46003","Beveren-Waas","Beveren-Waas","9120"
"BE2","02000","Vlaams Gewest","4","40000","Oost-Vlaanderen",,"46000","Sint-Niklaas","46003","Beveren","Doel","9130"
"BE2","02000","Vlaams Gewest","4","40000","Oost-Vlaanderen",,"46000","Sint-Niklaas","46025","Temse","Temse","9140"
"BE2","02000","Vlaams Gewest","4","40000","Oost-Vlaanderen",,"46000","Sint-Niklaas","46013","Kruibeke","Kruibeke","9150"
"BE2","02000","Vlaams Gewest","4","40000","Oost-Vlaanderen",,"46000","Sint-Niklaas","46014","Lokeren","Lokeren","9160"
"BE2","02000","Vlaams Gewest","4","40000","Oost-Vlaanderen",,"46000","Sint-Niklaas","46020","Sint-Gillis-Waas","Sint-Gillis-Waas","9170"
"BE2","02000","Vlaams Gewest","4","40000","Oost-Vlaanderen",,"44000","Gent","44045","Moerbeke-Waas","Moerbeke-Waas","9180"
"BE2","02000","Vlaams Gewest","4","40000","Oost-Vlaanderen",,"44000","Gent","44073","Wachtebeke","Wachtebeke","9185"
"BE2","02000","Vlaams Gewest","4","40000","Oost-Vlaanderen",,"46000","Sint-Niklaas","46024","Stekene","Stekene","9190"
"BE2","02000","Vlaams Gewest","4","40000","Oost-Vlaanderen",,"42000","Dendermonde","42006","Dendermonde","Dendermonde","9200"
"BE2","02000","Vlaams Gewest","4","40000","Oost-Vlaanderen",,"42000","Dendermonde","42008","Hamme","Hamme (O.-Vl.)","9220"
"BE2","02000","Vlaams Gewest","4","40000","Oost-Vlaanderen",,"42000","Dendermonde","42025","Wetteren","Wetteren","9230"
"BE2","02000","Vlaams Gewest","4","40000","Oost-Vlaanderen",,"42000","Dendermonde","42028","Zele","Zele","9240"
"BE2","02000","Vlaams Gewest","4","40000","Oost-Vlaanderen",,"42000","Dendermonde","42023","Waasmunster","Waasmunster","9250"
"BE2","02000","Vlaams Gewest","4","40000","Oost-Vlaanderen",,"42000","Dendermonde","42004","Buggenhout","Buggenhout","9255"
"BE2","02000","Vlaams Gewest","4","40000","Oost-Vlaanderen",,"42000","Dendermonde","42026","Wichelen","Wichelen","9260"
"BE2","02000","Vlaams Gewest","4","40000","Oost-Vlaanderen",,"42000","Dendermonde","42010","Laarne","Laarne","9270"
"BE2","02000","Vlaams Gewest","4","40000","Oost-Vlaanderen",,"42000","Dendermonde","42011","Lebbeke","Lebbeke","9280"
"BE2","02000","Vlaams Gewest","4","40000","Oost-Vlaanderen",,"42000","Dendermonde","42003","Berlare","Berlare","9290"
"BE2","02000","Vlaams Gewest","4","40000","Oost-Vlaanderen",,"41000","Aalst","41002","Aalst","Aalst","9300"
"BE2","02000","Vlaams Gewest","4","40000","Oost-Vlaanderen",,"41000","Aalst","41002","Aalst","Hofstade","9308"
"BE2","02000","Vlaams Gewest","4","40000","Oost-Vlaanderen",,"41000","Aalst","41002","Aalst","Meldert (O.-Vl.)","9310"
"BE2","02000","Vlaams Gewest","4","40000","Oost-Vlaanderen",,"41000","Aalst","41002","Aalst","Erembodegem","9320"
"BE2","02000","Vlaams Gewest","4","40000","Oost-Vlaanderen",,"41000","Aalst","41034","Lede","Lede","9340"
"BE2","02000","Vlaams Gewest","4","40000","Oost-Vlaanderen",,"41000","Aalst","41048","Ninove","Ninove","9400"
"BE2","02000","Vlaams Gewest","4","40000","Oost-Vlaanderen",,"41000","Aalst","41048","Ninove","Pollare","9401"
"BE2","02000","Vlaams Gewest","4","40000","Oost-Vlaanderen",,"41000","Aalst","41048","Ninove","Meerbeke","9402"
"BE2","02000","Vlaams Gewest","4","40000","Oost-Vlaanderen",,"41000","Aalst","41048","Ninove","Neigem","9403"
"BE2","02000","Vlaams Gewest","4","40000","Oost-Vlaanderen",,"41000","Aalst","41048","Ninove","Aspelare","9404"
"BE2","02000","Vlaams Gewest","4","40000","Oost-Vlaanderen",,"41000","Aalst","41048","Ninove","Outer","9406"
"BE2","02000","Vlaams Gewest","4","40000","Oost-Vlaanderen",,"41000","Aalst","41082","Erpe-Mere","Erpe-Mere","9420"
"BE2","02000","Vlaams Gewest","4","40000","Oost-Vlaanderen",,"41000","Aalst","41024","Haaltert","Haaltert","9450"
"BE2","02000","Vlaams Gewest","4","40000","Oost-Vlaanderen",,"41000","Aalst","41024","Haaltert","Kerksken","9451"
"BE2","02000","Vlaams Gewest","4","40000","Oost-Vlaanderen",,"41000","Aalst","41011","Denderleeuw","Denderleeuw","9470"
"BE2","02000","Vlaams Gewest","4","40000","Oost-Vlaanderen",,"41000","Aalst","41011","Denderleeuw","Iddergem","9472"
"BE2","02000","Vlaams Gewest","4","40000","Oost-Vlaanderen",,"41000","Aalst","41011","Denderleeuw","Welle","9473"
"BE2","02000","Vlaams Gewest","4","40000","Oost-Vlaanderen",,"41000","Aalst","41018","Geraardsbergen","Geraardsbergen","9500"
"BE2","02000","Vlaams Gewest","4","40000","Oost-Vlaanderen",,"41000","Aalst","41018","Geraardsbergen","Schendelbeke","9506"
"BE2","02000","Vlaams Gewest","4","40000","Oost-Vlaanderen",,"41000","Aalst","41063","Sint-Lievens-Houtem","Sint-Lievens-Houtem","9520"
"BE2","02000","Vlaams Gewest","4","40000","Oost-Vlaanderen",,"41000","Aalst","41063","Sint-Lievens-Houtem","Letterhoutem","9521"
"BE2","02000","Vlaams Gewest","4","40000","Oost-Vlaanderen",,"41000","Aalst","41027","Herzele","Herzele","9550"
"BE2","02000","Vlaams Gewest","4","40000","Oost-Vlaanderen",,"41000","Aalst","41027","Herzele","Ressegem","9551"
"BE2","02000","Vlaams Gewest","4","40000","Oost-Vlaanderen",,"41000","Aalst","41027","Herzele","Borsbeke","9552"
"BE2","02000","Vlaams Gewest","4","40000","Oost-Vlaanderen",,"45000","Oudenaarde","45063","Lierde","Sint-Maria-Lierde","9570"
"BE2","02000","Vlaams Gewest","4","40000","Oost-Vlaanderen",,"45000","Oudenaarde","45063","Lierde","Hemelveerdegem","9571"
"BE2","02000","Vlaams Gewest","4","40000","Oost-Vlaanderen",,"45000","Oudenaarde","45063","Lierde","Sint-Martens-Lierde","9572"
"BE2","02000","Vlaams Gewest","4","40000","Oost-Vlaanderen",,"45000","Oudenaarde","45041","Ronse","Ronse","9600"
"BE2","02000","Vlaams Gewest","4","40000","Oost-Vlaanderen",,"41000","Aalst","41081","Zottegem","Zottegem","9620"
"BE2","02000","Vlaams Gewest","4","40000","Oost-Vlaanderen",,"45000","Oudenaarde","45065","Zwalm","Munkzwalm","9630"
"BE2","02000","Vlaams Gewest","4","40000","Oost-Vlaanderen",,"45000","Oudenaarde","45065","Zwalm","Nederzwalm-Hermelgem","9636"
"BE2","02000","Vlaams Gewest","4","40000","Oost-Vlaanderen",,"45000","Oudenaarde","45059","Brakel","Brakel","9660"
"BE2","02000","Vlaams Gewest","4","40000","Oost-Vlaanderen",,"45000","Oudenaarde","45059","Brakel","Parike","9661"
"BE2","02000","Vlaams Gewest","4","40000","Oost-Vlaanderen",,"45000","Oudenaarde","45062","Horebeke","Horebeke","9667"
"BE2","02000","Vlaams Gewest","4","40000","Oost-Vlaanderen",,"45000","Oudenaarde","45064","Maarkedal","Maarkedal","9680"
"BE2","02000","Vlaams Gewest","4","40000","Oost-Vlaanderen",,"45000","Oudenaarde","45064","Maarkedal","Nukerke","9681"
"BE2","02000","Vlaams Gewest","4","40000","Oost-Vlaanderen",,"45000","Oudenaarde","45064","Maarkedal","Schorisse","9688"
"BE2","02000","Vlaams Gewest","4","40000","Oost-Vlaanderen",,"45000","Oudenaarde","45060","Kluisbergen","Kluisbergen","9690"
"BE2","02000","Vlaams Gewest","4","40000","Oost-Vlaanderen",,"45000","Oudenaarde","45035","Oudenaarde","Oudenaarde","9700"
"BE2","02000","Vlaams Gewest","4","40000","Oost-Vlaanderen",,"45000","Oudenaarde","45057","Zingem","Zingem","9750"
"BE2","02000","Vlaams Gewest","4","40000","Oost-Vlaanderen",,"45000","Oudenaarde","45017","Kruishoutem","Kruishoutem","9770"
"BE2","02000","Vlaams Gewest","4","40000","Oost-Vlaanderen",,"45000","Oudenaarde","45017","Kruishoutem","Nokere","9771"
"BE2","02000","Vlaams Gewest","4","40000","Oost-Vlaanderen",,"45000","Oudenaarde","45017","Kruishoutem","Wannegem-Lede","9772"
"BE2","02000","Vlaams Gewest","4","40000","Oost-Vlaanderen",,"45000","Oudenaarde","45061","Wortegem-Petegem","Wortegem-Petegem","9790"
"BE2","02000","Vlaams Gewest","4","40000","Oost-Vlaanderen",,"44000","Gent","44011","Deinze","Deinze","9800"
"BE2","02000","Vlaams Gewest","4","40000","Oost-Vlaanderen",,"44000","Gent","44048","Nazareth","Nazareth","9810"
"BE2","02000","Vlaams Gewest","4","40000","Oost-Vlaanderen",,"44000","Gent","44043","Merelbeke","Merelbeke","9820"
"BE2","02000","Vlaams Gewest","4","40000","Oost-Vlaanderen",,"44000","Gent","44064","Sint-Martens-Latem","Sint-Martens-Latem","9830"
"BE2","02000","Vlaams Gewest","4","40000","Oost-Vlaanderen",,"44000","Gent","44064","Sint-Martens-Latem","Deurle","9831"
"BE2","02000","Vlaams Gewest","4","40000","Oost-Vlaanderen",,"44000","Gent","44012","De Pinte","De Pinte","9840"
"BE2","02000","Vlaams Gewest","4","40000","Oost-Vlaanderen",,"44000","Gent","44049","Nevele","Nevele","9850"
"BE2","02000","Vlaams Gewest","4","40000","Oost-Vlaanderen",,"44000","Gent","44052","Oosterzele","Oosterzele","9860"
"BE2","02000","Vlaams Gewest","4","40000","Oost-Vlaanderen",,"44000","Gent","44081","Zulte","Zulte","9870"
"BE2","02000","Vlaams Gewest","4","40000","Oost-Vlaanderen",,"44000","Gent","44001","Aalter","Aalter","9880"
"BE2","02000","Vlaams Gewest","4","40000","Oost-Vlaanderen",,"44000","Gent","44001","Aalter","Bellem","9881"
"BE2","02000","Vlaams Gewest","4","40000","Oost-Vlaanderen",,"44000","Gent","44020","Gavere","Gavere","9890"
"BE2","02000","Vlaams Gewest","4","40000","Oost-Vlaanderen",,"43000","Eeklo","43005","Eeklo","Eeklo","9900"
"BE2","02000","Vlaams Gewest","4","40000","Oost-Vlaanderen",,"44000","Gent","44029","Knesselare","Knesselare","9910"
"BE2","02000","Vlaams Gewest","4","40000","Oost-Vlaanderen",,"44000","Gent","44036","Lovendegem","Lovendegem","9920"
"BE2","02000","Vlaams Gewest","4","40000","Oost-Vlaanderen",,"44000","Gent","44036","Lovendegem","Vinderhoute","9921"
"BE2","02000","Vlaams Gewest","4","40000","Oost-Vlaanderen",,"44000","Gent","44080","Zomergem","Zomergem","9930"
"BE2","02000","Vlaams Gewest","4","40000","Oost-Vlaanderen",,"44000","Gent","44080","Zomergem","Oostwinkel","9931"
"BE2","02000","Vlaams Gewest","4","40000","Oost-Vlaanderen",,"44000","Gent","44080","Zomergem","Ronsele","9932"
"BE2","02000","Vlaams Gewest","4","40000","Oost-Vlaanderen",,"44000","Gent","44019","Evergem","Evergem","9940"
"BE2","02000","Vlaams Gewest","4","40000","Oost-Vlaanderen",,"44000","Gent","44072","Waarschoot","Waarschoot","9950"
"BE2","02000","Vlaams Gewest","4","40000","Oost-Vlaanderen",,"43000","Eeklo","43002","Assenede","Assenede","9960"
"BE2","02000","Vlaams Gewest","4","40000","Oost-Vlaanderen",,"43000","Eeklo","43002","Assenede","Boekhoute","9961"
"BE2","02000","Vlaams Gewest","4","40000","Oost-Vlaanderen",,"43000","Eeklo","43002","Assenede","Oosteeklo","9968"
"BE2","02000","Vlaams Gewest","4","40000","Oost-Vlaanderen",,"43000","Eeklo","43007","Kaprijke","Kaprijke","9970"
"BE2","02000","Vlaams Gewest","4","40000","Oost-Vlaanderen",,"43000","Eeklo","43007","Kaprijke","Lembeke","9971"
"BE2","02000","Vlaams Gewest","4","40000","Oost-Vlaanderen",,"43000","Eeklo","43014","Sint-Laureins","Sint-Laureins","9980"
"BE2","02000","Vlaams Gewest","4","40000","Oost-Vlaanderen",,"43000","Eeklo","43014","Sint-Laureins","Sint-Margriete","9981"
"BE2","02000","Vlaams Gewest","4","40000","Oost-Vlaanderen",,"43000","Eeklo","43014","Sint-Laureins","Sint-Jan-in-Eremo","9982"
"BE2","02000","Vlaams Gewest","4","40000","Oost-Vlaanderen",,"43000","Eeklo","43014","Sint-Laureins","Watervliet","9988"
"BE2","02000","Vlaams Gewest","4","40000","Oost-Vlaanderen",,"43000","Eeklo","43010","Maldegem","Maldegem","9990"
"BE2","02000","Vlaams Gewest","4","40000","Oost-Vlaanderen",,"43000","Eeklo","43010","Maldegem","Adegem","9991"
"BE2","02000","Vlaams Gewest","4","40000","Oost-Vlaanderen",,"43000","Eeklo","43010","Maldegem","Middelburg","9992"
